{"type":"FeatureCollection","features":[{"type":"Feature","geometry":{"type":"Point","coordinates":[129.9173,32.9158]},"properties":{"stn":"長崎空港","n":null,"op":"供用中","mode":"air"}},{"type":"Feature","geometry":{"type":"Point","coordinates":[131.0324,33.8379]},"properties":{"stn":"北九州空港","n":null,"op":"供用中","mode":"air"}},{"type":"Feature","geometry":{"type":"Point","coordinates":[140.4204,36.1836]},"properties":{"stn":"百里飛行場","n":null,"op":"供用中","mode":"air"}},{"type":"Feature","geometry":{"type":"Point","coordinates":[133.3231,36.178]},"properties":{"stn":"隠岐空港","n":null,"op":"供用中","mode":"air"}},{"type":"Feature","geometry":{"type":"Point","coordinates":[135.4381,34.7888]},"properties":{"stn":"大阪国際空港","n":null,"op":"供用中","mode":"air"}},{"type":"Feature","geometry":{"type":"Point","coordinates":[141.0395,45.4548]},"properties":{"stn":"礼文空港","n":null,"op":"休止中","mode":"air"}},{"type":"Feature","geometry":{"type":"Point","coordinates":[141.1856,45.2421]},"properties":{"stn":"利尻空港","n":null,"op":"供用中","mode":"air"}},{"type":"Feature","geometry":{"type":"Point","coordinates":[143.2161,42.733]},"properties":{"stn":"帯広空港","n":null,"op":"供用中","mode":"air"}},{"type":"Feature","geometry":{"type":"Point","coordinates":[144.1929,43.0439]},"properties":{"stn":"釧路空港","n":null,"op":"供用中","mode":"air"}},{"type":"Feature","geometry":{"type":"Point","coordinates":[144.9597,43.5759]},"properties":{"stn":"中標津空港","n":null,"op":"供用中","mode":"air"}},{"type":"Feature","geometry":{"type":"Point","coordinates":[144.1619,43.8822]},"properties":{"stn":"女満別空港","n":null,"op":"供用中","mode":"air"}},{"type":"Feature","geometry":{"type":"Point","coordinates":[143.4049,44.304]},"properties":{"stn":"紋別空港","n":null,"op":"供用中","mode":"air"}},{"type":"Feature","geometry":{"type":"Point","coordinates":[142.4512,43.6695]},"properties":{"stn":"旭川空港","n":null,"op":"供用中","mode":"air"}},{"type":"Feature","geometry":{"type":"Point","coordinates":[141.6849,42.7826]},"properties":{"stn":"新千歳空港","n":null,"op":"供用中","mode":"air"}},{"type":"Feature","geometry":{"type":"Point","coordinates":[141.382,43.1151]},"properties":{"stn":"札幌飛行場","n":null,"op":"供用中","mode":"air"}},{"type":"Feature","geometry":{"type":"Point","coordinates":[140.8162,41.7734]},"properties":{"stn":"函館空港","n":null,"op":"供用中","mode":"air"}},{"type":"Feature","geometry":{"type":"Point","coordinates":[140.6912,40.7373]},"properties":{"stn":"青森空港","n":null,"op":"供用中","mode":"air"}},{"type":"Feature","geometry":{"type":"Point","coordinates":[141.37,40.7032]},"properties":{"stn":"三沢飛行場","n":null,"op":"供用中","mode":"air"}},{"type":"Feature","geometry":{"type":"Point","coordinates":[140.3729,40.194]},"properties":{"stn":"大館能代空港","n":null,"op":"供用中","mode":"air"}},{"type":"Feature","geometry":{"type":"Point","coordinates":[140.2175,39.6143]},"properties":{"stn":"秋田空港","n":null,"op":"供用中","mode":"air"}},{"type":"Feature","geometry":{"type":"Point","coordinates":[141.1343,39.4265]},"properties":{"stn":"花巻空港","n":null,"op":"供用中","mode":"air"}},{"type":"Feature","geometry":{"type":"Point","coordinates":[139.7897,38.8134]},"properties":{"stn":"庄内空港","n":null,"op":"供用中","mode":"air"}},{"type":"Feature","geometry":{"type":"Point","coordinates":[140.3711,38.4096]},"properties":{"stn":"山形空港","n":null,"op":"供用中","mode":"air"}},{"type":"Feature","geometry":{"type":"Point","coordinates":[140.9228,38.1381]},"properties":{"stn":"仙台空港","n":null,"op":"供用中","mode":"air"}},{"type":"Feature","geometry":{"type":"Point","coordinates":[140.4294,37.2272]},"properties":{"stn":"福島空港","n":null,"op":"供用中","mode":"air"}},{"type":"Feature","geometry":{"type":"Point","coordinates":[139.5289,35.6706]},"properties":{"stn":"調布飛行場","n":null,"op":"供用中","mode":"air"}},{"type":"Feature","geometry":{"type":"Point","coordinates":[139.1346,34.1901]},"properties":{"stn":"神津島空港","n":null,"op":"供用中","mode":"air"}},{"type":"Feature","geometry":{"type":"Point","coordinates":[139.3617,34.7827]},"properties":{"stn":"大島空港","n":null,"op":"供用中","mode":"air"}},{"type":"Feature","geometry":{"type":"Point","coordinates":[139.2692,34.3698]},"properties":{"stn":"新島空港","n":null,"op":"供用中","mode":"air"}},{"type":"Feature","geometry":{"type":"Point","coordinates":[139.5596,34.0732]},"properties":{"stn":"三宅島空港","n":null,"op":"供用中","mode":"air"}},{"type":"Feature","geometry":{"type":"Point","coordinates":[139.7839,33.1153]},"properties":{"stn":"八丈島空港","n":null,"op":"供用中","mode":"air"}},{"type":"Feature","geometry":{"type":"Point","coordinates":[136.923,35.2542]},"properties":{"stn":"名古屋飛行場","n":null,"op":"供用中","mode":"air"}},{"type":"Feature","geometry":{"type":"Point","coordinates":[135.5962,34.5982]},"properties":{"stn":"八尾空港","n":null,"op":"供用中","mode":"air"}},{"type":"Feature","geometry":{"type":"Point","coordinates":[135.3643,33.6619]},"properties":{"stn":"南紀白浜空港","n":null,"op":"供用中","mode":"air"}},{"type":"Feature","geometry":{"type":"Point","coordinates":[139.1151,37.9543]},"properties":{"stn":"新潟空港","n":null,"op":"供用中","mode":"air"}},{"type":"Feature","geometry":{"type":"Point","coordinates":[138.4137,38.0605]},"properties":{"stn":"佐渡空港","n":null,"op":"供用中","mode":"air"}},{"type":"Feature","geometry":{"type":"Point","coordinates":[129.7856,33.7497]},"properties":{"stn":"壱岐空港","n":null,"op":"供用中","mode":"air"}},{"type":"Feature","geometry":{"type":"Point","coordinates":[129.3268,34.287]},"properties":{"stn":"対馬空港","n":null,"op":"供用中","mode":"air"}},{"type":"Feature","geometry":{"type":"Point","coordinates":[128.8359,32.6688]},"properties":{"stn":"福江空港","n":null,"op":"供用中","mode":"air"}},{"type":"Feature","geometry":{"type":"Point","coordinates":[130.1568,32.4836]},"properties":{"stn":"天草飛行場","n":null,"op":"供用中","mode":"air"}},{"type":"Feature","geometry":{"type":"Point","coordinates":[130.7189,31.8011]},"properties":{"stn":"鹿児島空港","n":null,"op":"供用中","mode":"air"}},{"type":"Feature","geometry":{"type":"Point","coordinates":[130.9903,30.6068]},"properties":{"stn":"種子島空港","n":null,"op":"供用中","mode":"air"}},{"type":"Feature","geometry":{"type":"Point","coordinates":[130.6601,30.3846]},"properties":{"stn":"屋久島空港","n":null,"op":"供用中","mode":"air"}},{"type":"Feature","geometry":{"type":"Point","coordinates":[130.8589,32.8368]},"properties":{"stn":"熊本空港","n":null,"op":"供用中","mode":"air"}},{"type":"Feature","geometry":{"type":"Point","coordinates":[131.4465,31.8757]},"properties":{"stn":"宮崎空港","n":null,"op":"供用中","mode":"air"}},{"type":"Feature","geometry":{"type":"Point","coordinates":[131.5051,33.0265]},"properties":{"stn":"大分県央飛行場","n":null,"op":"供用中","mode":"air"}},{"type":"Feature","geometry":{"type":"Point","coordinates":[133.6725,33.5464]},"properties":{"stn":"高知空港","n":null,"op":"供用中","mode":"air"}},{"type":"Feature","geometry":{"type":"Point","coordinates":[132.7002,33.8281]},"properties":{"stn":"松山空港","n":null,"op":"供用中","mode":"air"}},{"type":"Feature","geometry":{"type":"Point","coordinates":[134.0186,34.2169]},"properties":{"stn":"高松空港","n":null,"op":"供用中","mode":"air"}},{"type":"Feature","geometry":{"type":"Point","coordinates":[134.5973,34.1333]},"properties":{"stn":"徳島飛行場","n":null,"op":"供用中","mode":"air"}},{"type":"Feature","geometry":{"type":"Point","coordinates":[128.7023,27.4284]},"properties":{"stn":"沖永良部空港","n":null,"op":"供用中","mode":"air"}},{"type":"Feature","geometry":{"type":"Point","coordinates":[128.4012,27.0441]},"properties":{"stn":"与論空港","n":null,"op":"供用中","mode":"air"}},{"type":"Feature","geometry":{"type":"Point","coordinates":[131.326,25.9442]},"properties":{"stn":"北大東空港","n":null,"op":"供用中","mode":"air"}},{"type":"Feature","geometry":{"type":"Point","coordinates":[131.2637,25.8467]},"properties":{"stn":"南大東空港","n":null,"op":"供用中","mode":"air"}},{"type":"Feature","geometry":{"type":"Point","coordinates":[127.7866,26.7234]},"properties":{"stn":"伊江島空港","n":null,"op":"供用中","mode":"air"}},{"type":"Feature","geometry":{"type":"Point","coordinates":[126.7156,26.3653]},"properties":{"stn":"久米島空港","n":null,"op":"供用中","mode":"air"}},{"type":"Feature","geometry":{"type":"Point","coordinates":[125.2957,24.7815]},"properties":{"stn":"宮古空港","n":null,"op":"供用中","mode":"air"}},{"type":"Feature","geometry":{"type":"Point","coordinates":[125.1465,24.8279]},"properties":{"stn":"下地島空港","n":null,"op":"供用中","mode":"air"}},{"type":"Feature","geometry":{"type":"Point","coordinates":[123.8054,24.0598]},"properties":{"stn":"波照間空港","n":null,"op":"供用中","mode":"air"}},{"type":"Feature","geometry":{"type":"Point","coordinates":[122.9786,24.4667]},"properties":{"stn":"与那国空港","n":null,"op":"供用中","mode":"air"}},{"type":"Feature","geometry":{"type":"Point","coordinates":[124.6758,24.6537]},"properties":{"stn":"多良間空港","n":null,"op":"供用中","mode":"air"}},{"type":"Feature","geometry":{"type":"Point","coordinates":[137.9239,36.1648]},"properties":{"stn":"松本空港","n":null,"op":"供用中","mode":"air"}},{"type":"Feature","geometry":{"type":"Point","coordinates":[136.9612,37.2945]},"properties":{"stn":"能登空港","n":null,"op":"供用中","mode":"air"}},{"type":"Feature","geometry":{"type":"Point","coordinates":[137.1867,36.6442]},"properties":{"stn":"富山空港","n":null,"op":"供用中","mode":"air"}},{"type":"Feature","geometry":{"type":"Point","coordinates":[136.4084,36.3935]},"properties":{"stn":"小松飛行場","n":null,"op":"供用中","mode":"air"}},{"type":"Feature","geometry":{"type":"Point","coordinates":[136.2241,36.1429]},"properties":{"stn":"福井空港","n":null,"op":"供用中","mode":"air"}},{"type":"Feature","geometry":{"type":"Point","coordinates":[134.7879,35.5174]},"properties":{"stn":"但馬飛行場","n":null,"op":"供用中","mode":"air"}},{"type":"Feature","geometry":{"type":"Point","coordinates":[134.1684,35.5283]},"properties":{"stn":"鳥取空港","n":null,"op":"供用中","mode":"air"}},{"type":"Feature","geometry":{"type":"Point","coordinates":[133.8553,34.7581]},"properties":{"stn":"岡山空港","n":null,"op":"供用中","mode":"air"}},{"type":"Feature","geometry":{"type":"Point","coordinates":[133.9306,34.5918]},"properties":{"stn":"岡南飛行場","n":null,"op":"供用中","mode":"air"}},{"type":"Feature","geometry":{"type":"Point","coordinates":[132.8889,35.4142]},"properties":{"stn":"出雲空港","n":null,"op":"供用中","mode":"air"}},{"type":"Feature","geometry":{"type":"Point","coordinates":[132.9187,34.4378]},"properties":{"stn":"広島空港","n":null,"op":"供用中","mode":"air"}},{"type":"Feature","geometry":{"type":"Point","coordinates":[131.7954,34.6767]},"properties":{"stn":"石見空港","n":null,"op":"供用中","mode":"air"}},{"type":"Feature","geometry":{"type":"Point","coordinates":[131.2753,33.9308]},"properties":{"stn":"山口宇部空港","n":null,"op":"供用中","mode":"air"}},{"type":"Feature","geometry":{"type":"Point","coordinates":[130.4471,33.5875]},"properties":{"stn":"福岡空港","n":null,"op":"供用中","mode":"air"}},{"type":"Feature","geometry":{"type":"Point","coordinates":[130.3019,33.1516]},"properties":{"stn":"佐賀空港","n":null,"op":"供用中","mode":"air"}},{"type":"Feature","geometry":{"type":"Point","coordinates":[128.882,27.8326]},"properties":{"stn":"徳之島空港","n":null,"op":"供用中","mode":"air"}},{"type":"Feature","geometry":{"type":"Point","coordinates":[129.9278,28.3215]},"properties":{"stn":"喜界空港","n":null,"op":"供用中","mode":"air"}},{"type":"Feature","geometry":{"type":"Point","coordinates":[127.2935,26.1702]},"properties":{"stn":"慶良間空港","n":null,"op":"供用中","mode":"air"}},{"type":"Feature","geometry":{"type":"Point","coordinates":[127.2403,26.5929]},"properties":{"stn":"粟国空港","n":null,"op":"供用中","mode":"air"}},{"type":"Feature","geometry":{"type":"Point","coordinates":[138.1878,34.7949]},"properties":{"stn":"静岡空港","n":null,"op":"供用中","mode":"air"}},{"type":"Feature","geometry":{"type":"Point","coordinates":[135.2322,34.4408]},"properties":{"stn":"関西国際空港","n":null,"op":"供用中","mode":"air"}},{"type":"Feature","geometry":{"type":"Point","coordinates":[136.8111,34.8603]},"properties":{"stn":"中部国際空港","n":null,"op":"供用中","mode":"air"}},{"type":"Feature","geometry":{"type":"Point","coordinates":[131.7354,33.4769]},"properties":{"stn":"大分空港","n":null,"op":"供用中","mode":"air"}},{"type":"Feature","geometry":{"type":"Point","coordinates":[135.2281,34.6351]},"properties":{"stn":"神戸空港","n":null,"op":"供用中","mode":"air"}},{"type":"Feature","geometry":{"type":"Point","coordinates":[129.7112,28.4304]},"properties":{"stn":"奄美空港","n":null,"op":"供用中","mode":"air"}},{"type":"Feature","geometry":{"type":"Point","coordinates":[129.1937,33.0107]},"properties":{"stn":"上五島空港","n":null,"op":"供用中","mode":"air"}},{"type":"Feature","geometry":{"type":"Point","coordinates":[129.0898,33.1902]},"properties":{"stn":"小値賀空港","n":null,"op":"供用中","mode":"air"}},{"type":"Feature","geometry":{"type":"Point","coordinates":[140.3865,35.7686]},"properties":{"stn":"成田国際空港","n":null,"op":"供用中","mode":"air"}},{"type":"Feature","geometry":{"type":"Point","coordinates":[133.2404,35.4923]},"properties":{"stn":"美保飛行場","n":null,"op":"供用中","mode":"air"}},{"type":"Feature","geometry":{"type":"Point","coordinates":[141.7967,45.4013]},"properties":{"stn":"稚内空港","n":null,"op":"供用中","mode":"air"}},{"type":"Feature","geometry":{"type":"Point","coordinates":[124.2449,24.3958]},"properties":{"stn":"新石垣空港","n":null,"op":"供用中","mode":"air"}},{"type":"Feature","geometry":{"type":"Point","coordinates":[132.2475,34.146]},"properties":{"stn":"岩国飛行場","n":null,"op":"供用中","mode":"air"}},{"type":"Feature","geometry":{"type":"Point","coordinates":[139.4341,42.0709]},"properties":{"stn":"奥尻空港","n":null,"op":"供用中","mode":"air"}},{"type":"Feature","geometry":{"type":"Point","coordinates":[139.7788,35.5533]},"properties":{"stn":"東京国際空港","n":null,"op":"供用中","mode":"air"}},{"type":"Feature","geometry":{"type":"Point","coordinates":[127.6443,26.1964]},"properties":{"stn":"那覇空港","n":null,"op":"供用中","mode":"air"}},{"type":"Feature","geometry":{"type":"Point","coordinates":[130.3919,33.678]},"properties":{"stn":"福岡空港（奈多地区）","n":null,"op":"供用中","mode":"air"}}]}