{"type":"FeatureCollection","features":[{"type":"Feature","geometry":{"type":"LineString","coordinates":[[140.69777,42.86145],[140.69379,42.86293],[140.68008,42.86782]]},"properties":{"n":"エースゴンドラ","op":null,"mode":"ropeway","kind":"gondola"}},{"type":"Feature","geometry":{"type":"LineString","coordinates":[[140.6842,42.84695],[140.68365,42.84757],[140.68335,42.8479],[140.68244,42.84891],[140.68214,42.84924],[140.68179,42.84963],[140.68068,42.85085],[140.68029,42.85128],[140.6793,42.85237],[140.67847,42.85328],[140.67794,42.85387],[140.67668,42.85527],[140.67622,42.85578],[140.67584,42.85619],[140.67494,42.85718],[140.67408,42.85814],[140.67353,42.85875],[140.67293,42.85941],[140.67243,42.85996],[140.67209,42.86034],[140.67155,42.86094],[140.67142,42.86107],[140.67134,42.86117],[140.67058,42.86201],[140.67027,42.86234],[140.66992,42.86273],[140.66879,42.86399],[140.66847,42.86433],[140.6684,42.86441],[140.66767,42.86522],[140.66726,42.86567]]},"properties":{"n":"ニセコゴンドラ","op":null,"mode":"ropeway","kind":"gondola"}},{"type":"Feature","geometry":{"type":"LineString","coordinates":[[138.77213,35.50395],[138.77559,35.50369],[138.77668,35.50361]]},"properties":{"n":"〜河口湖〜 富士山パノラマロープウェイ","op":"富士山麓電気鉄道","mode":"ropeway","kind":"cable_car"}},{"type":"Feature","geometry":{"type":"LineString","coordinates":[[134.29642,34.50864],[134.30057,34.51557]]},"properties":{"n":"寒霞渓ロープウェイ","op":null,"mode":"ropeway","kind":"cable_car"}},{"type":"Feature","geometry":{"type":"LineString","coordinates":[[139.01025,35.21324],[139.01432,35.21634],[139.02053,35.22106],[139.02392,35.22363]]},"properties":{"n":"箱根駒ヶ岳ロープウェー","op":"プリンスホテル","mode":"ropeway","kind":"cable_car"}},{"type":"Feature","geometry":{"type":"LineString","coordinates":[[139.5176,36.73718],[139.51468,36.73744]]},"properties":{"n":"明智平ロープウェイ","op":null,"mode":"ropeway","kind":"cable_car"}},{"type":"Feature","geometry":{"type":"LineString","coordinates":[[139.03566,35.24667],[139.03459,35.24653],[139.0331,35.24633],[139.02979,35.24588],[139.02581,35.24535],[139.02019,35.24459],[139.01986,35.24455]]},"properties":{"n":"箱根ロープウェイ","op":"株式会社小田急箱根","mode":"ropeway","kind":"gondola"}},{"type":"Feature","geometry":{"type":"LineString","coordinates":[[134.50227,33.86262],[134.52141,33.88099]]},"properties":{"n":"太龍寺ロープウェイ","op":null,"mode":"ropeway","kind":"cable_car"}},{"type":"Feature","geometry":{"type":"LineString","coordinates":[[139.9795,37.12522],[139.97253,37.12449],[139.97075,37.1243]]},"properties":{"n":"那須ロープウェイ","op":null,"mode":"ropeway","kind":"cable_car"}},{"type":"Feature","geometry":{"type":"LineString","coordinates":[[134.66673,34.87858],[134.66283,34.88329],[134.66204,34.88423]]},"properties":{"n":"書写山ロープウェイ","op":null,"mode":"ropeway","kind":"cable_car"}},{"type":"Feature","geometry":{"type":"LineString","coordinates":[[142.79888,43.65306],[142.80213,43.6542],[142.80768,43.65603],[142.81059,43.65704],[142.81178,43.65745],[142.81583,43.65887],[142.82191,43.66095],[142.82464,43.66192]]},"properties":{"n":"大雪山旭岳ロープウェイ","op":"ワカサリゾート株式会社","mode":"ropeway","kind":"cable_car"}},{"type":"Feature","geometry":{"type":"LineString","coordinates":[[140.71418,41.76092],[140.70491,41.75924]]},"properties":{"n":"函館山ロープウェイ","op":null,"mode":"ropeway","kind":"cable_car"}},{"type":"Feature","geometry":{"type":"LineString","coordinates":[[137.83683,36.70179],[137.83548,36.70153],[137.83386,36.70123],[137.83348,36.70115],[137.83153,36.70074],[137.83045,36.70052],[137.82953,36.70033],[137.82937,36.7003],[137.82792,36.7],[137.82697,36.6998],[137.8259,36.69958],[137.82352,36.69909],[137.8223,36.69883],[137.81968,36.69829],[137.81791,36.69793],[137.81715,36.69777],[137.81658,36.69765],[137.81584,36.6975]]},"properties":{"n":"八方ゴンドラリフト「アダム」","op":null,"mode":"ropeway","kind":"gondola"}},{"type":"Feature","geometry":{"type":"LineString","coordinates":[[139.01907,35.24437],[139.01833,35.24439],[139.01669,35.24442],[139.01516,35.24444],[139.01229,35.24448],[139.01143,35.2445],[139.00746,35.24454],[139.00657,35.24457],[139.00606,35.24458],[139.00534,35.24417],[139.00416,35.24346],[139.00271,35.24264],[138.99992,35.24098],[138.99842,35.24013],[138.99654,35.23908],[138.9948,35.23809],[138.99459,35.23797]]},"properties":{"n":"箱根ロープウェイ","op":"株式会社小田急箱根","mode":"ropeway","kind":"gondola"}},{"type":"Feature","geometry":{"type":"LineString","coordinates":[[140.10646,36.22502],[140.10724,36.22471],[140.11278,36.22231],[140.11888,36.21981]]},"properties":{"n":"筑波山ロープウェイ","op":null,"mode":"ropeway","kind":"cable_car"}},{"type":"Feature","geometry":{"type":"LineString","coordinates":[[130.2856,32.75083],[130.28564,32.75143],[130.28585,32.75463]]},"properties":{"n":"雲仙ロープウェイ","op":null,"mode":"ropeway","kind":"cable_car"}},{"type":"Feature","geometry":{"type":"LineString","coordinates":[[136.77484,35.43454],[136.78016,35.43227]]},"properties":{"n":"金華山ロープウェイ","op":null,"mode":"ropeway","kind":"cable_car"}},{"type":"Feature","geometry":{"type":"LineString","coordinates":[[137.81368,35.77742],[137.81587,35.77641],[137.81662,35.77606],[137.82134,35.7738],[137.82294,35.77305],[137.82884,35.7702],[137.83213,35.76863],[137.83386,35.76781]]},"properties":{"n":"駒ヶ岳ロープウェイ","op":null,"mode":"ropeway","kind":"cable_car"}},{"type":"Feature","geometry":{"type":"LineString","coordinates":[[132.32678,34.29323],[132.32679,34.29312],[132.3283,34.28401],[132.32832,34.28386],[132.32827,34.28385],[132.32826,34.2839]]},"properties":{"n":"宮島ロープウエー","op":null,"mode":"ropeway","kind":"cable_car"}},{"type":"Feature","geometry":{"type":"LineString","coordinates":[[132.7717,33.84439],[132.77111,33.84439],[132.77042,33.84438],[132.76971,33.84438],[132.76896,33.84438],[132.76817,33.84437]]},"properties":{"n":"松山城ロープウェイ","op":null,"mode":"ropeway","kind":"cable_car"}},{"type":"Feature","geometry":{"type":"LineString","coordinates":[[138.87723,36.47155],[138.87734,36.47229],[138.87756,36.47385],[138.87783,36.47549]]},"properties":{"n":"榛名山ロープウェイ","op":"谷川岳ロープウェイ","mode":"ropeway","kind":"cable_car"}},{"type":"Feature","geometry":{"type":"LineString","coordinates":[[137.5753,36.28585],[137.57995,36.28318]]},"properties":{"n":"新穂高ロープウェイ","op":null,"mode":"ropeway","kind":"cable_car"}},{"type":"Feature","geometry":{"type":"LineString","coordinates":[[137.58075,36.28231],[137.58591,36.27899],[137.58844,36.27723],[137.59162,36.27502],[137.59509,36.27262],[137.59833,36.27039],[137.60174,36.26805]]},"properties":{"n":"新穂高ロープウェイ","op":null,"mode":"ropeway","kind":"cable_car"}},{"type":"Feature","geometry":{"type":"LineString","coordinates":[[139.82331,35.16224],[139.82551,35.16075],[139.82869,35.15826]]},"properties":{"n":"鋸山ロープウェー","op":null,"mode":"ropeway","kind":"gondola"}},{"type":"Feature","geometry":{"type":"LineString","coordinates":[[138.9619,36.83636],[138.9602,36.83391],[138.95915,36.83227],[138.95694,36.82897],[138.95486,36.82582],[138.95415,36.82469],[138.95302,36.82299],[138.95145,36.82071],[138.95011,36.81869],[138.94975,36.8182]]},"properties":{"n":"谷川岳ロープウェイ","op":null,"mode":"ropeway","kind":"gondola"}},{"type":"Feature","geometry":{"type":"LineString","coordinates":[[136.65277,36.2838],[136.66689,36.26658]]},"properties":{"n":null,"op":null,"mode":"ropeway","kind":"cable_car"}},{"type":"Feature","geometry":{"type":"LineString","coordinates":[[142.94697,43.72405],[142.94581,43.72182],[142.94345,43.71726],[142.94146,43.71343],[142.94023,43.71106]]},"properties":{"n":"大雪山層雲峡黒岳ロープウェイ","op":"株式会社りんゆう観光","mode":"ropeway","kind":"cable_car"}},{"type":"Feature","geometry":{"type":"LineString","coordinates":[[138.30243,36.06839],[138.30467,36.06958],[138.3067,36.07066],[138.30994,36.07238],[138.31261,36.07379],[138.32009,36.07776],[138.32199,36.07877]]},"properties":{"n":"北八ヶ岳ロープウェイ","op":null,"mode":"ropeway","kind":"cable_car"}},{"type":"Feature","geometry":{"type":"LineString","coordinates":[[140.90566,39.23741],[140.90448,39.23704],[140.90366,39.23678],[140.90268,39.23648],[140.90207,39.23629],[140.90011,39.23568],[140.89891,39.2353],[140.89804,39.23503],[140.89663,39.23459],[140.89533,39.23418],[140.89513,39.23412],[140.89406,39.23379],[140.89341,39.23358],[140.89284,39.23341],[140.89263,39.23334],[140.89131,39.23293],[140.8905,39.23267],[140.88953,39.23237],[140.88891,39.23218],[140.88754,39.23175]]},"properties":{"n":"第一ゴンドラ","op":null,"mode":"ropeway","kind":"gondola"}},{"type":"Feature","geometry":{"type":"LineString","coordinates":[[138.91924,36.49705],[138.92107,36.49324]]},"properties":{"n":"伊香保ロープウェイ","op":null,"mode":"ropeway","kind":"cable_car"}},{"type":"Feature","geometry":{"type":"LineString","coordinates":[[138.50722,36.7246],[138.50753,36.72471],[138.50837,36.72502],[138.50931,36.72536],[138.5115,36.72616],[138.51387,36.72702],[138.5146,36.72729],[138.51539,36.72758],[138.51574,36.72771],[138.51716,36.72822],[138.51783,36.72847],[138.51878,36.72881],[138.52004,36.72927],[138.52024,36.72934]]},"properties":{"n":"東館山ゴンドラリフト","op":null,"mode":"ropeway","kind":"gondola"}},{"type":"Feature","geometry":{"type":"LineString","coordinates":[[138.4638,36.55716],[138.46322,36.55725],[138.4616,36.55753],[138.45975,36.55784],[138.45796,36.55814],[138.45645,36.5584],[138.45375,36.55886],[138.45235,36.55909],[138.45052,36.5594],[138.4497,36.55954],[138.44874,36.55971],[138.44713,36.55998],[138.44499,36.56034],[138.44348,36.5606],[138.44271,36.56073],[138.44119,36.56098],[138.43875,36.56139],[138.43641,36.56179],[138.43463,36.56209],[138.43385,36.56223],[138.43307,36.56236],[138.43102,36.5627],[138.43031,36.56282],[138.43019,36.56284],[138.42992,36.56289]]},"properties":{"n":"パルキャビン","op":null,"mode":"ropeway","kind":"gondola"}},{"type":"Feature","geometry":{"type":"LineString","coordinates":[[138.52929,36.75164],[138.52873,36.75195],[138.52788,36.75239],[138.52727,36.75271],[138.52631,36.75322],[138.52591,36.75343],[138.52442,36.75422],[138.52424,36.75431],[138.52277,36.75509],[138.52183,36.75558],[138.52104,36.756],[138.52042,36.75633],[138.51945,36.75684],[138.51854,36.75732],[138.51721,36.75802],[138.51589,36.75872],[138.51466,36.75937],[138.51446,36.75948],[138.51336,36.76006],[138.51253,36.7605],[138.51192,36.76082]]},"properties":{"n":"焼額山第1ゴンドラリフト","op":null,"mode":"ropeway","kind":"gondola"}},{"type":"Feature","geometry":{"type":"LineString","coordinates":[[138.52414,36.74683],[138.52358,36.74736],[138.52277,36.74812],[138.52174,36.74908],[138.52064,36.75012],[138.52002,36.7507],[138.51955,36.75114],[138.5183,36.75231],[138.51742,36.75313],[138.51679,36.75373],[138.51639,36.75411],[138.51506,36.75535],[138.51472,36.75567],[138.51334,36.75696],[138.51262,36.75763],[138.51181,36.75839],[138.51098,36.75917],[138.50996,36.76013],[138.50947,36.76059],[138.50901,36.76102]]},"properties":{"n":"第2ゴンドラリフト","op":null,"mode":"ropeway","kind":"gondola"}},{"type":"Feature","geometry":{"type":"LineString","coordinates":[[138.49798,36.7215],[138.49829,36.72156],[138.49861,36.72162],[138.49952,36.72181],[138.50058,36.72203],[138.5016,36.72223],[138.50362,36.72264],[138.50451,36.72282],[138.50537,36.723],[138.50618,36.72316],[138.50728,36.72339],[138.50803,36.72354],[138.50864,36.72366],[138.50885,36.72371]]},"properties":{"n":"ブナ平ゴンドラリフト","op":null,"mode":"ropeway","kind":"gondola"}},{"type":"Feature","geometry":{"type":"LineString","coordinates":[[138.53511,36.76637],[138.53491,36.76636],[138.5344,36.76636],[138.53303,36.76634],[138.53196,36.76633],[138.52883,36.76629],[138.52838,36.76628],[138.5266,36.76626],[138.52544,36.76624],[138.5246,36.76623],[138.52402,36.76623],[138.5233,36.76622],[138.52162,36.7662],[138.5204,36.76618],[138.51919,36.76617],[138.51775,36.76614],[138.51585,36.76613],[138.51541,36.76612],[138.51462,36.7661]]},"properties":{"n":"奥志賀ゴンドラ","op":null,"mode":"ropeway","kind":"gondola"}},{"type":"Feature","geometry":{"type":"LineString","coordinates":[[138.75432,36.88852],[138.75409,36.88837],[138.75359,36.88806],[138.75233,36.88721],[138.75134,36.88654],[138.75075,36.88615],[138.74965,36.88542],[138.7496,36.88539],[138.74851,36.88468],[138.74816,36.88444],[138.74757,36.88403],[138.74742,36.88394],[138.74663,36.88341],[138.74585,36.8829],[138.74461,36.88208],[138.74418,36.88183],[138.74329,36.88123],[138.74235,36.8806],[138.74123,36.87984],[138.74033,36.87926],[138.73884,36.87829],[138.73845,36.87802],[138.73724,36.87719],[138.73658,36.87675],[138.73617,36.87648],[138.73526,36.8759],[138.73417,36.87519],[138.73324,36.87455],[138.73278,36.87423],[138.73254,36.87407],[138.73119,36.87317],[138.72923,36.87188],[138.72821,36.87121],[138.7277,36.87087]]},"properties":{"n":"かぐらゴンドラ","op":null,"mode":"ropeway","kind":"gondola"}},{"type":"Feature","geometry":{"type":"LineString","coordinates":[[138.775,36.89312],[138.76805,36.89405],[138.76716,36.89416],[138.76633,36.89428]]},"properties":{"n":"みつまたロープウェイ","op":null,"mode":"ropeway","kind":"cable_car"}},{"type":"Feature","geometry":{"type":"LineString","coordinates":[[138.20476,35.9131],[138.20467,35.91307],[138.2042,35.9129],[138.2035,35.91265],[138.2028,35.9124],[138.20156,35.912],[138.20086,35.91175],[138.20055,35.91165],[138.20004,35.91146],[138.19871,35.91101],[138.19864,35.91099],[138.19858,35.91096],[138.1976,35.91062],[138.19655,35.91027],[138.19611,35.91012],[138.19524,35.90981],[138.19432,35.90951],[138.19386,35.90933],[138.19282,35.90899],[138.19182,35.90866],[138.19008,35.90802],[138.18886,35.90763],[138.18784,35.90727],[138.18696,35.90697],[138.18636,35.90676],[138.18512,35.90633],[138.18481,35.90623],[138.18357,35.90579],[138.18208,35.90527],[138.18146,35.90505],[138.18123,35.90497]]},"properties":{"n":"ゴンドラすずらん","op":null,"mode":"ropeway","kind":"gondola"}},{"type":"Feature","geometry":{"type":"LineString","coordinates":[[138.80404,36.94006],[138.79825,36.93896],[138.79403,36.93816],[138.79068,36.93753]]},"properties":{"n":"湯沢高原ロープウェイ","op":null,"mode":"ropeway","kind":"cable_car"}},{"type":"Feature","geometry":{"type":"LineString","coordinates":[[135.66606,34.40369],[135.66949,34.40697],[135.67549,34.41257]]},"properties":{"n":"金剛山ロープウェイ","op":null,"mode":"ropeway","kind":"cable_car"}},{"type":"Feature","geometry":{"type":"LineString","coordinates":[[135.68697,34.45849],[135.6899,34.45965],[135.69359,34.46112],[135.69632,34.46221],[135.69981,34.4636]]},"properties":{"n":"金剛山ロープウェイ","op":null,"mode":"ropeway","kind":"cable_car"}},{"type":"Feature","geometry":{"type":"LineString","coordinates":[[137.63184,36.56958],[137.63351,36.5694],[137.64964,36.56693]]},"properties":{"n":"立山ロープウェイ","op":null,"mode":"ropeway","kind":"cable_car"}},{"type":"Feature","geometry":{"type":"LineString","coordinates":[[137.66877,35.45542],[137.66508,35.45538],[137.66363,35.45536],[137.66323,35.45536],[137.6614,35.45534],[137.65988,35.45532],[137.65771,35.4553],[137.65624,35.45528],[137.65402,35.45526],[137.65356,35.45526],[137.65271,35.45525],[137.65178,35.45524],[137.65121,35.45523],[137.64922,35.45521],[137.64758,35.45519],[137.64635,35.45518],[137.64528,35.45517],[137.64364,35.45515],[137.64285,35.45514],[137.64233,35.45514]]},"properties":{"n":"ヘブンスそのはらゴンドラ","op":null,"mode":"ropeway","kind":"gondola"}},{"type":"Feature","geometry":{"type":"LineString","coordinates":[[132.17535,34.17125],[132.1722,34.17332]]},"properties":{"n":"岩国城ロープウェー","op":null,"mode":"ropeway","kind":"cable_car"}},{"type":"Feature","geometry":{"type":"LineString","coordinates":[[131.43345,33.28516],[131.44857,33.27803]]},"properties":{"n":null,"op":null,"mode":"ropeway","kind":"cable_car"}},{"type":"Feature","geometry":{"type":"LineString","coordinates":[[135.854,34.37512],[135.8556,34.37263]]},"properties":{"n":"吉野ロープウェイ","op":"吉野大峯ケーブル自動車","mode":"ropeway","kind":"cable_car"}},{"type":"Feature","geometry":{"type":"LineString","coordinates":[[136.44628,35.01683],[136.44305,35.01726],[136.43696,35.01807],[136.43475,35.01835],[136.42883,35.01913],[136.42465,35.01968]]},"properties":{"n":"御在所ロープウェイ","op":"御在所ロープウェイ","mode":"ropeway","kind":"gondola"}},{"type":"Feature","geometry":{"type":"LineString","coordinates":[[139.51747,35.6322],[139.51748,35.63187],[139.51751,35.63141],[139.51755,35.63059],[139.51756,35.63032],[139.51762,35.6293],[139.51768,35.62808],[139.51773,35.6271],[139.51779,35.62597],[139.51785,35.62464],[139.51787,35.62415]]},"properties":{"n":"スカイシャトル","op":"よみうりランド","mode":"ropeway","kind":"gondola"}},{"type":"Feature","geometry":{"type":"LineString","coordinates":[[138.46384,34.97362],[138.46401,34.97307],[138.4654,34.96815],[138.46644,34.96458],[138.46653,34.96425]]},"properties":{"n":"日本平ロープウェイ","op":null,"mode":"ropeway","kind":"cable_car"}},{"type":"Feature","geometry":{"type":"LineString","coordinates":[[141.33302,43.03149],[141.33209,43.03033],[141.32689,43.02394],[141.32568,43.02248]]},"properties":{"n":"もいわ山ロープウェイ","op":null,"mode":"ropeway","kind":"cable_car"}},{"type":"Feature","geometry":{"type":"LineString","coordinates":[[136.64104,36.43939],[136.64151,36.43985],[136.64254,36.44084],[136.64356,36.44182],[136.64525,36.44344],[136.64576,36.44393],[136.64735,36.44546],[136.64785,36.44594],[136.64817,36.44625]]},"properties":{"n":"獅子吼ゴンドラ","op":null,"mode":"ropeway","kind":"gondola"}},{"type":"Feature","geometry":{"type":"LineString","coordinates":[[142.18762,43.7049],[142.18872,43.70447],[142.19018,43.70391],[142.19201,43.70319],[142.19387,43.70247],[142.19524,43.70193],[142.19596,43.70165],[142.19653,43.70143],[142.19718,43.70118],[142.19817,43.70079],[142.19932,43.70034],[142.20064,43.69983],[142.20162,43.69945],[142.20374,43.69862],[142.20576,43.69783],[142.20632,43.69762],[142.20687,43.6974],[142.2079,43.697],[142.20956,43.69635],[142.21127,43.69568],[142.21184,43.69546],[142.2123,43.69528]]},"properties":{"n":"カムイゴンドラ","op":null,"mode":"ropeway","kind":"gondola"}},{"type":"Feature","geometry":{"type":"LineString","coordinates":[[132.32827,34.28347],[132.32824,34.28343],[132.32523,34.27963],[132.32519,34.27958]]},"properties":{"n":"宮島ロープウエー","op":null,"mode":"ropeway","kind":"cable_car"}},{"type":"Feature","geometry":{"type":"LineString","coordinates":[[135.09676,34.64058],[135.10014,34.63787]]},"properties":{"n":"須磨浦ロープウェイ","op":null,"mode":"ropeway","kind":"cable_car"}},{"type":"Feature","geometry":{"type":"LineString","coordinates":[[137.61738,34.76378],[137.61795,34.7649],[137.62051,34.76989]]},"properties":{"n":"かんざんじロープウェイ","op":null,"mode":"ropeway","kind":"cable_car"}},{"type":"Feature","geometry":{"type":"LineString","coordinates":[[140.39807,38.17086],[140.39855,38.17086],[140.40045,38.17088],[140.40147,38.17088],[140.40273,38.17089],[140.40533,38.17088],[140.4065,38.17088],[140.4072,38.17087],[140.40989,38.17086],[140.41134,38.17085],[140.4119,38.17085],[140.41273,38.17085],[140.41325,38.17085],[140.41377,38.17084],[140.41444,38.17084],[140.41566,38.17083],[140.41612,38.17083]]},"properties":{"n":"蔵王スカイケーブル","op":null,"mode":"ropeway","kind":"gondola"}},{"type":"Feature","geometry":{"type":"LineString","coordinates":[[140.39573,38.16486],[140.40043,38.16504],[140.40882,38.16542],[140.4153,38.16577]]},"properties":{"n":"蔵王中央ケーブル","op":null,"mode":"ropeway","kind":"cable_car"}},{"type":"Feature","geometry":{"type":"LineString","coordinates":[[139.71834,36.83729],[139.71621,36.83913],[139.71416,36.84088]]},"properties":{"n":"鬼怒川温泉ロープウェイ","op":null,"mode":"ropeway","kind":"cable_car"}},{"type":"Feature","geometry":{"type":"LineString","coordinates":[[140.70153,42.86453],[140.70075,42.86481],[140.69882,42.86549],[140.69708,42.86611],[140.69613,42.86645],[140.69369,42.86731],[140.69277,42.86764],[140.6927,42.86766],[140.69205,42.86789],[140.69013,42.86858],[140.68904,42.86896],[140.68867,42.86909],[140.68837,42.8692],[140.68816,42.86927],[140.68811,42.86929],[140.68755,42.86949],[140.6849,42.87043],[140.68392,42.87078],[140.68273,42.8712],[140.6817,42.87156]]},"properties":{"n":"King Gondola","op":null,"mode":"ropeway","kind":"gondola"}},{"type":"Feature","geometry":{"type":"LineString","coordinates":[[134.54495,34.07009],[134.53772,34.06731]]},"properties":{"n":"眉山ロープウェイ","op":null,"mode":"ropeway","kind":"cable_car"}},{"type":"Feature","geometry":{"type":"LineString","coordinates":[[138.82119,37.70859],[138.81604,37.70933],[138.8115,37.70998]]},"properties":{"n":"弥彦山ロープウェイ","op":"弥彦観光索道","mode":"ropeway","kind":"cable_car"}},{"type":"Feature","geometry":{"type":"LineString","coordinates":[[140.91053,42.73671],[140.9106,42.73591],[140.91068,42.73501],[140.9108,42.73368],[140.91092,42.73231],[140.91099,42.73159],[140.91104,42.731],[140.91118,42.72947],[140.91131,42.72797],[140.91149,42.72605],[140.91154,42.72545],[140.91164,42.72435],[140.91182,42.72231],[140.91189,42.72153],[140.91203,42.71999],[140.91211,42.71912],[140.91214,42.71876]]},"properties":{"n":"イーストゴンドラ２号線","op":null,"mode":"ropeway","kind":"gondola"}},{"type":"Feature","geometry":{"type":"LineString","coordinates":[[140.92857,42.73607],[140.92842,42.73531],[140.92816,42.73404],[140.92798,42.73318],[140.92789,42.73275],[140.92763,42.73144],[140.92753,42.73097],[140.92735,42.73007],[140.92709,42.72881],[140.9268,42.72743],[140.92651,42.72597],[140.92625,42.72471],[140.92603,42.72367],[140.92581,42.72259],[140.92563,42.72168],[140.92548,42.72099],[140.92526,42.71989],[140.92504,42.71883],[140.92484,42.71782],[140.92463,42.71681],[140.9243,42.71523],[140.92405,42.71399],[140.92392,42.71334],[140.92375,42.71254],[140.92357,42.71166],[140.92349,42.71125]]},"properties":{"n":"イゾラゴンドラ","op":null,"mode":"ropeway","kind":"gondola"}},{"type":"Feature","geometry":{"type":"LineString","coordinates":[[140.89957,42.74923],[140.89769,42.74962],[140.89633,42.74989],[140.89491,42.75017],[140.89347,42.75046],[140.89225,42.75069],[140.89116,42.75091],[140.89048,42.75104],[140.88929,42.75127],[140.88833,42.75146],[140.88818,42.75149],[140.8878,42.75157],[140.88742,42.75164]]},"properties":{"n":"ウエストゴンドラ","op":null,"mode":"ropeway","kind":"gondola"}},{"type":"Feature","geometry":{"type":"LineString","coordinates":[[138.56419,35.75345],[138.56374,35.75317],[138.55489,35.7486]]},"properties":{"n":"昇仙峡ロープウェイ","op":null,"mode":"ropeway","kind":"cable_car"}},{"type":"Feature","geometry":{"type":"LineString","coordinates":[[140.83188,40.68087],[140.8588,40.6759]]},"properties":{"n":"八甲田ロープウェー","op":null,"mode":"ropeway","kind":"cable_car"}},{"type":"Feature","geometry":{"type":"LineString","coordinates":[[133.14812,33.80301],[133.14731,33.80257],[133.14272,33.80005],[133.13466,33.79562],[133.13374,33.79512]]},"properties":{"n":"石鎚登山ロープウェイ","op":null,"mode":"ropeway","kind":"cable_car"}},{"type":"Feature","geometry":{"type":"LineString","coordinates":[[130.95735,33.96795],[130.95792,33.97163]]},"properties":{"n":"火の山ロープウェイ","op":null,"mode":"ropeway","kind":"cable_car"}},{"type":"Feature","geometry":{"type":"LineString","coordinates":[[140.01507,37.12783],[140.01487,37.12789],[140.01401,37.12817],[140.01305,37.12847],[140.01158,37.12895],[140.01003,37.12944],[140.00914,37.12972],[140.00877,37.12984],[140.00761,37.13021],[140.00658,37.13054],[140.00509,37.13102],[140.0038,37.13143],[140.00369,37.13146],[140.00273,37.13177],[140.00124,37.13225],[140.00044,37.1325],[139.9997,37.13274],[139.99898,37.13297],[139.99804,37.13327],[139.99748,37.13345],[139.99718,37.13354],[139.99677,37.13367]]},"properties":{"n":"那須ゴンドラ","op":null,"mode":"ropeway","kind":"gondola"}},{"type":"Feature","geometry":{"type":"LineString","coordinates":[[139.10203,36.09114],[139.09832,36.09115],[139.09533,36.09115],[139.0934,36.09115]]},"properties":{"n":"宝登山ロープウェイ","op":null,"mode":"ropeway","kind":"cable_car"}},{"type":"Feature","geometry":{"type":"LineString","coordinates":[[140.0604,37.5793],[140.06041,37.57939],[140.06048,37.57978],[140.06061,37.58048],[140.06072,37.58113],[140.06085,37.58185],[140.06094,37.58238],[140.061,37.58266],[140.06131,37.58445],[140.06142,37.58507],[140.06156,37.58582],[140.06172,37.58676],[140.06187,37.58759],[140.06201,37.58834],[140.06221,37.5895],[140.06237,37.59037],[140.0626,37.59171],[140.06266,37.592],[140.06287,37.59317],[140.06292,37.59346],[140.06296,37.59368]]},"properties":{"n":"磐梯山ロープゥエイ","op":null,"mode":"ropeway","kind":"gondola"}},{"type":"Feature","geometry":{"type":"LineString","coordinates":[[140.03496,37.58618],[140.035,37.58621],[140.03525,37.58639],[140.03617,37.58707],[140.03716,37.58779],[140.03794,37.58836],[140.03901,37.58914],[140.03988,37.58978],[140.04061,37.59031],[140.04126,37.59079],[140.04233,37.59157],[140.0435,37.59243],[140.04474,37.59334],[140.04595,37.59422],[140.04645,37.59459],[140.04677,37.59482],[140.04853,37.59611],[140.04944,37.59677],[140.05017,37.5973],[140.05076,37.59773],[140.05218,37.59877],[140.05286,37.59927],[140.05373,37.59991],[140.05396,37.60008]]},"properties":{"n":"アルツゴンドラ","op":null,"mode":"ropeway","kind":"gondola"}},{"type":"Feature","geometry":{"type":"LineString","coordinates":[[140.13293,37.696],[140.1329,37.69614],[140.13276,37.69663],[140.13256,37.69734],[140.13234,37.69814],[140.13212,37.69891],[140.13182,37.69999],[140.13161,37.70074],[140.1314,37.70153],[140.13113,37.7025],[140.13091,37.70329],[140.13073,37.70394],[140.13039,37.70514],[140.13008,37.70624],[140.12987,37.707],[140.12951,37.70829],[140.12947,37.70843],[140.12932,37.709],[140.12907,37.70989],[140.12871,37.71117],[140.12839,37.71233],[140.12826,37.71278],[140.12781,37.71441],[140.12754,37.71537],[140.1274,37.71587],[140.12728,37.71631]]},"properties":{"n":"ゴンドラ","op":null,"mode":"ropeway","kind":"gondola"}},{"type":"Feature","geometry":{"type":"LineString","coordinates":[[136.80344,35.96568],[136.80395,35.96618],[136.80492,35.96713],[136.80553,35.96774],[136.80693,35.96912],[136.80742,35.9696],[136.80796,35.97014],[136.80907,35.97123],[136.81055,35.97269],[136.8111,35.97324],[136.81177,35.9739],[136.81258,35.9747],[136.81424,35.97634],[136.81535,35.97743],[136.81625,35.97832],[136.81657,35.97863],[136.8171,35.97916],[136.81838,35.98042],[136.81851,35.98055],[136.81857,35.9806],[136.81891,35.98095]]},"properties":{"n":null,"op":null,"mode":"ropeway","kind":"gondola"}},{"type":"Feature","geometry":{"type":"LineString","coordinates":[[140.74686,41.98637],[140.74689,41.98632],[140.74704,41.98614],[140.7474,41.98571],[140.74802,41.98493],[140.74879,41.98392],[140.74908,41.98357],[140.74956,41.98292],[140.75005,41.98226],[140.75056,41.98162],[140.75147,41.98048],[140.7521,41.97966],[140.7528,41.97879],[140.75355,41.97784],[140.75413,41.97706],[140.75484,41.97621],[140.7554,41.97547],[140.75588,41.97484],[140.75647,41.97411],[140.75704,41.97335],[140.75722,41.97312],[140.75798,41.97225],[140.75845,41.97166],[140.75895,41.97099],[140.75927,41.97054],[140.75976,41.96991],[140.7606,41.96887],[140.761,41.96834],[140.76125,41.96804],[140.76191,41.96717],[140.76287,41.96597],[140.76338,41.96531],[140.76383,41.96472],[140.76447,41.9639],[140.765,41.96326],[140.76568,41.96235],[140.76608,41.96185],[140.76625,41.96163]]},"properties":{"n":"七飯ゴンドラ","op":null,"mode":"ropeway","kind":"gondola"}},{"type":"Feature","geometry":{"type":"LineString","coordinates":[[140.97221,43.17207],[140.9751,43.17781]]},"properties":{"n":"観光ロープウェイ","op":null,"mode":"ropeway","kind":"cable_car"}},{"type":"Feature","geometry":{"type":"LineString","coordinates":[[140.97137,40.00062],[140.97113,40.00014],[140.97073,39.99933],[140.97057,39.99901],[140.97029,39.99844],[140.96972,39.99729],[140.96922,39.99627],[140.96854,39.9949],[140.96804,39.99388],[140.96753,39.99285],[140.96741,39.99261],[140.96697,39.99171],[140.96633,39.99041],[140.96561,39.98896],[140.96498,39.98768],[140.96468,39.98708],[140.96446,39.98664],[140.96384,39.98537],[140.9632,39.98408],[140.96238,39.98243],[140.96194,39.98153],[140.96124,39.9801],[140.96077,39.97916],[140.96048,39.97856],[140.96039,39.97839],[140.96028,39.97816]]},"properties":{"n":"安比ゴンドラ","op":null,"mode":"ropeway","kind":"gondola"}},{"type":"Feature","geometry":{"type":"LineString","coordinates":[[140.99068,43.06751],[140.99108,43.06743],[140.99261,43.067],[140.99449,43.06639],[140.99491,43.06626],[140.99573,43.06601],[140.99678,43.0657],[140.99856,43.06516],[141.00011,43.06469],[141.00136,43.06432],[141.00284,43.06387],[141.00344,43.06369],[141.00355,43.06366],[141.00406,43.0635],[141.00543,43.06309],[141.00551,43.06307],[141.00746,43.06248],[141.00971,43.0618],[141.01065,43.06151],[141.01223,43.06104],[141.01311,43.06077],[141.01444,43.06037],[141.01862,43.05911],[141.01977,43.05876],[141.02149,43.05825],[141.02366,43.05759],[141.02462,43.0573],[141.02539,43.05707],[141.02634,43.05678],[141.0267,43.05667]]},"properties":{"n":"キロロゴンドラ","op":null,"mode":"ropeway","kind":"gondola"}},{"type":"Feature","geometry":{"type":"LineString","coordinates":[[141.14454,42.49306],[141.14497,42.49298],[141.14618,42.49276],[141.14764,42.49249],[141.14862,42.49231],[141.14991,42.49207],[141.15093,42.49188],[141.15267,42.49156],[141.1544,42.49125],[141.15545,42.49105],[141.1572,42.49073],[141.158,42.49058],[141.15841,42.4905]]},"properties":{"n":null,"op":null,"mode":"ropeway","kind":"gondola"}},{"type":"Feature","geometry":{"type":"LineString","coordinates":[[141.15839,42.49045],[141.15435,42.49119],[141.15091,42.49181],[141.14615,42.49268],[141.14475,42.49293]]},"properties":{"n":null,"op":null,"mode":"ropeway","kind":"gondola"}},{"type":"Feature","geometry":{"type":"LineString","coordinates":[[134.5311,35.45214],[134.53025,35.45284],[134.52979,35.45324],[134.52824,35.45452],[134.52702,35.45548],[134.5261,35.45625],[134.52501,35.45717],[134.52478,35.45736],[134.5247,35.45742],[134.52329,35.4586],[134.52321,35.45866],[134.52201,35.45967],[134.52192,35.45974],[134.52048,35.46089],[134.52041,35.46094],[134.51978,35.46144],[134.51883,35.4622],[134.51772,35.46319],[134.51735,35.46352],[134.51665,35.46414],[134.51634,35.46442]]},"properties":{"n":"おじろスキー場　ゴンドラリフト","op":null,"mode":"ropeway","kind":"gondola"}},{"type":"Feature","geometry":{"type":"LineString","coordinates":[[134.80377,35.62523],[134.80334,35.62506],[134.80044,35.62395],[134.7974,35.62278]]},"properties":{"n":"城崎温泉ロープウェイ","op":null,"mode":"ropeway","kind":"cable_car"}},{"type":"Feature","geometry":{"type":"LineString","coordinates":[[136.82181,36.51446],[136.82117,36.51442],[136.82022,36.51438],[136.81863,36.51431],[136.81747,36.51425],[136.81705,36.51421],[136.81497,36.5141],[136.81471,36.51409],[136.81376,36.51405],[136.81223,36.51396],[136.81149,36.51393],[136.81116,36.51392],[136.8103,36.51388],[136.80909,36.51382],[136.80847,36.51378],[136.80698,36.51368],[136.80516,36.5136],[136.80507,36.5136],[136.80454,36.5136]]},"properties":{"n":"ゴンドラ","op":null,"mode":"ropeway","kind":"gondola"}},{"type":"Feature","geometry":{"type":"LineString","coordinates":[[141.08222,43.0716],[141.08159,43.07152],[141.07953,43.07128],[141.0787,43.07118],[141.07691,43.07097],[141.07559,43.07082],[141.07543,43.0708],[141.07347,43.07057],[141.07121,43.07031],[141.06996,43.07016],[141.06829,43.06997],[141.06713,43.06983],[141.0656,43.06965],[141.06448,43.06952],[141.06343,43.0694],[141.05911,43.06889]]},"properties":{"n":"スカイキャビン8","op":null,"mode":"ropeway","kind":"gondola"}},{"type":"Feature","geometry":{"type":"LineString","coordinates":[[129.84937,32.7543],[129.85161,32.75507],[129.85928,32.75772],[129.85963,32.75788],[129.85913,32.75782],[129.85156,32.75515],[129.84937,32.7543]]},"properties":{"n":"長崎ロープウェイ","op":null,"mode":"ropeway","kind":"cable_car"}},{"type":"Feature","geometry":{"type":"LineString","coordinates":[[140.90014,42.74938],[140.90113,42.74819],[140.90228,42.74681],[140.90277,42.74622],[140.90321,42.74569],[140.90436,42.74432],[140.90546,42.743],[140.90677,42.74144],[140.9077,42.74032],[140.90881,42.73899],[140.90964,42.738],[140.91056,42.73689]]},"properties":{"n":"イーストゴンドラ １号線","op":null,"mode":"ropeway","kind":"gondola"}},{"type":"Feature","geometry":{"type":"LineString","coordinates":[[135.21133,34.72741],[135.21127,34.72747],[135.20596,34.73362],[135.20592,34.73366]]},"properties":{"n":null,"op":null,"mode":"ropeway","kind":"cable_car"}},{"type":"Feature","geometry":{"type":"LineString","coordinates":[[135.24717,34.76647],[135.2471,34.7677],[135.24695,34.77014],[135.24662,34.77558],[135.24649,34.77766],[135.24614,34.78331],[135.2461,34.78387],[135.24586,34.78784],[135.24565,34.79096]]},"properties":{"n":"六甲有馬ロープウェイ裏六甲線","op":null,"mode":"ropeway","kind":"cable_car"}},{"type":"Feature","geometry":{"type":"LineString","coordinates":[[135.19378,34.70451],[135.19277,34.70797],[135.19254,34.70909],[135.19193,34.71119],[135.19161,34.7124],[135.19147,34.71348],[135.19116,34.71509],[135.19098,34.71666],[135.19092,34.71701]]},"properties":{"n":"神戸布引ロープウェイ","op":null,"mode":"ropeway","kind":"gondola"}},{"type":"Feature","geometry":{"type":"LineString","coordinates":[[138.27275,36.12938],[138.27379,36.12899],[138.27513,36.12849],[138.2758,36.12825],[138.27811,36.12739],[138.27879,36.12714],[138.27953,36.12686],[138.28191,36.12598],[138.28315,36.12552],[138.28439,36.12506],[138.28478,36.12492]]},"properties":{"n":"蓼科牧場ゴンドラリフト","op":null,"mode":"ropeway","kind":"gondola"}},{"type":"Feature","geometry":{"type":"LineString","coordinates":[[138.94616,34.67885],[138.95181,34.67915]]},"properties":{"n":"下田ロープウェイ","op":"下田ロープウェイ","mode":"ropeway","kind":"cable_car"}},{"type":"Feature","geometry":{"type":"LineString","coordinates":[[133.20139,34.41068],[133.19845,34.4106],[133.19774,34.4106]]},"properties":{"n":"千光寺ロープウェイ","op":"おのみちバス","mode":"ropeway","kind":"cable_car"}},{"type":"Feature","geometry":{"type":"LineString","coordinates":[[140.49196,39.95555],[140.49266,39.95599],[140.49363,39.95662],[140.49505,39.95756],[140.49603,39.95822],[140.49678,39.95865],[140.49707,39.95884],[140.49834,39.95967],[140.49852,39.95978],[140.49959,39.96048],[140.50013,39.96085],[140.50107,39.96144],[140.50184,39.96194],[140.5027,39.96249],[140.50369,39.96314],[140.50384,39.96324],[140.50537,39.96421],[140.50647,39.96494],[140.50694,39.96524],[140.5074,39.96552],[140.50902,39.96661],[140.51031,39.96743],[140.51175,39.96836],[140.51321,39.96932],[140.51373,39.96964],[140.51537,39.9707],[140.51676,39.97163],[140.51714,39.97187],[140.51821,39.97255],[140.51934,39.9733],[140.52056,39.97408],[140.52138,39.97463],[140.52159,39.97474]]},"properties":{"n":"阿仁ゴンドラ","op":null,"mode":"ropeway","kind":"gondola"}},{"type":"Feature","geometry":{"type":"LineString","coordinates":[[140.76181,42.59057],[140.77904,42.59285]]},"properties":{"n":"サミットキャビン (Summit Cabin)","op":null,"mode":"ropeway","kind":"cable_car"}},{"type":"Feature","geometry":{"type":"LineString","coordinates":[[140.86046,42.53905],[140.84436,42.54028]]},"properties":{"n":"有珠山ロープウェイ","op":"ワカサリゾート株式会社","mode":"ropeway","kind":"cable_car"}},{"type":"Feature","geometry":{"type":"LineString","coordinates":[[142.62326,43.065],[142.62244,43.0654],[142.62129,43.06595],[142.61963,43.06675],[142.61809,43.0675],[142.61656,43.06823],[142.61335,43.06978],[142.60986,43.07146],[142.6094,43.07168],[142.60826,43.07224],[142.60759,43.07256],[142.60694,43.07287],[142.60446,43.07407],[142.60316,43.07469],[142.6015,43.07549],[142.60083,43.07582],[142.60013,43.07615],[142.59856,43.07691]]},"properties":{"n":"雲海テラスゴンドラ","op":null,"mode":"ropeway","kind":"gondola"}},{"type":"Feature","geometry":{"type":"LineString","coordinates":[[137.53637,35.90139],[137.53632,35.90138],[137.5355,35.90134],[137.53429,35.90127],[137.53274,35.90117],[137.5303,35.90102],[137.52877,35.90093],[137.52763,35.90086],[137.52665,35.9008],[137.5259,35.90075],[137.52477,35.90068],[137.52337,35.9006],[137.52121,35.90047],[137.52024,35.90041],[137.51953,35.90037],[137.51789,35.90027],[137.51607,35.90016],[137.51486,35.90008],[137.51369,35.90001],[137.51225,35.89992],[137.51172,35.8999]]},"properties":{"n":"御岳ロープウェイ","op":null,"mode":"ropeway","kind":"gondola"}},{"type":"Feature","geometry":{"type":"LineString","coordinates":[[138.45338,36.92584],[138.45473,36.92557],[138.45508,36.9255],[138.45669,36.92517],[138.45818,36.92487],[138.45898,36.92471],[138.45953,36.92462],[138.4609,36.92434],[138.46257,36.924],[138.46472,36.92356],[138.46559,36.92343],[138.46676,36.92324],[138.46761,36.9231],[138.46829,36.92299],[138.46882,36.9229],[138.46943,36.92279],[138.4707,36.92254],[138.47255,36.92217],[138.47372,36.92196],[138.47509,36.9217],[138.47627,36.9215],[138.47677,36.92142]]},"properties":{"n":"日陰ゴンドラ","op":null,"mode":"ropeway","kind":"gondola"}},{"type":"Feature","geometry":{"type":"LineString","coordinates":[[137.85862,36.71705],[137.85769,36.71763],[137.85696,36.71808],[137.85525,36.71914],[137.85444,36.71964],[137.85378,36.72005],[137.85343,36.72026],[137.85307,36.72049],[137.8521,36.72108],[137.85074,36.72192],[137.84994,36.72242],[137.84941,36.72274],[137.84866,36.72321],[137.84799,36.72362],[137.84555,36.72513],[137.84543,36.72521],[137.84514,36.72539],[137.84339,36.72647],[137.84196,36.72735],[137.84115,36.72785],[137.84075,36.7281],[137.84034,36.72835]]},"properties":{"n":"ノア","op":null,"mode":"ropeway","kind":"gondola"}},{"type":"Feature","geometry":{"type":"LineString","coordinates":[[137.87084,36.74962],[137.87066,36.74971],[137.86999,36.75002],[137.86888,36.75053],[137.86728,36.75126],[137.866,36.75185],[137.8639,36.75281],[137.86304,36.75321],[137.86253,36.75344],[137.86076,36.75425],[137.86027,36.75444],[137.85966,36.75466],[137.85822,36.7552],[137.85733,36.75554],[137.85662,36.7558],[137.85507,36.75638],[137.85295,36.75718],[137.85022,36.7582],[137.84861,36.7588],[137.84852,36.75883],[137.84713,36.75935],[137.84637,36.75964],[137.84551,36.75996],[137.84488,36.7602],[137.84317,36.76084],[137.84308,36.76087],[137.8418,36.76135],[137.84088,36.76169],[137.83829,36.76266],[137.8373,36.76303],[137.83623,36.76344],[137.83471,36.764],[137.83377,36.76436],[137.83198,36.76503],[137.83112,36.76535],[137.83079,36.76547]]},"properties":{"n":"Eve Gondola","op":null,"mode":"ropeway","kind":"gondola"}},{"type":"Feature","geometry":{"type":"LineString","coordinates":[[137.82773,36.68456],[137.8272,36.68418],[137.82564,36.68303],[137.82536,36.68283],[137.82496,36.68254],[137.82488,36.68248],[137.82397,36.68182],[137.82391,36.68178],[137.8234,36.6814],[137.82249,36.68074],[137.82241,36.68068],[137.82177,36.68021],[137.82055,36.67932],[137.8196,36.67863],[137.81917,36.67831],[137.81812,36.67755],[137.81718,36.67686],[137.81666,36.67649]]},"properties":{"n":"ゴンドラリフトLine8","op":null,"mode":"ropeway","kind":"gondola"}},{"type":"Feature","geometry":{"type":"LineString","coordinates":[[137.83498,36.66367],[137.83447,36.66367],[137.8326,36.66366],[137.8313,36.66364],[137.82974,36.66363],[137.82947,36.66363],[137.82927,36.66363],[137.8281,36.66362],[137.82601,36.66359],[137.8255,36.66356],[137.82407,36.66356],[137.82361,36.66357],[137.82259,36.66354],[137.8215,36.66356],[137.81909,36.66352],[137.81858,36.66354],[137.81735,36.66353],[137.81581,36.66351],[137.81506,36.66351],[137.81495,36.66351],[137.81452,36.66351]]},"properties":{"n":"五竜テレキャビン","op":null,"mode":"ropeway","kind":"gondola"}},{"type":"Feature","geometry":{"type":"LineString","coordinates":[[140.41074,38.15166],[140.41112,38.15172],[140.41339,38.15206],[140.41567,38.1524],[140.41922,38.15294],[140.41997,38.15305],[140.42195,38.15335],[140.42331,38.15355],[140.42698,38.1541],[140.42854,38.15434],[140.43049,38.15463],[140.43118,38.15473]]},"properties":{"n":"2 蔵王ロープウェイ山頂線","op":null,"mode":"ropeway","kind":"gondola"}},{"type":"Feature","geometry":{"type":"LineString","coordinates":[[140.39526,38.1616],[140.39796,38.15982],[140.40936,38.15233],[140.41002,38.1519]]},"properties":{"n":"1 蔵王ロープウェイ山麓線","op":null,"mode":"ropeway","kind":"cable_car"}},{"type":"Feature","geometry":{"type":"LineString","coordinates":[[138.17724,36.88702],[138.17608,36.88711],[138.17453,36.88724],[138.17285,36.88739],[138.17157,36.88749],[138.17039,36.88759],[138.16867,36.88774],[138.1669,36.88788],[138.16634,36.88793],[138.16559,36.88799],[138.16378,36.88815],[138.16287,36.88822],[138.16156,36.88833],[138.16067,36.88841],[138.1594,36.88851],[138.15787,36.88864],[138.15589,36.88881],[138.15436,36.88894],[138.15316,36.88904],[138.15205,36.88913],[138.15166,36.88916],[138.15048,36.88926],[138.14974,36.88933],[138.14966,36.88933],[138.1492,36.88932]]},"properties":{"n":"妙高高原スカイケーブル","op":null,"mode":"ropeway","kind":"gondola"}},{"type":"Feature","geometry":{"type":"LineString","coordinates":[[133.84052,34.04745],[133.84198,34.04425],[133.84215,34.04389],[133.84293,34.04218],[133.84347,34.04099],[133.84392,34.04004]]},"properties":{"n":"箸蔵山ロープウェイ","op":null,"mode":"ropeway","kind":"cable_car"}},{"type":"Feature","geometry":{"type":"LineString","coordinates":[[133.70853,34.05624],[133.71055,34.05351],[133.71174,34.05194],[133.72199,34.03796],[133.7226,34.03712]]},"properties":{"n":"雲辺寺ロープウェイ","op":null,"mode":"ropeway","kind":"cable_car"}},{"type":"Feature","geometry":{"type":"LineString","coordinates":[[141.96982,43.05073],[141.97036,43.05059],[141.97121,43.05035],[141.97317,43.04981],[141.97457,43.04943],[141.97614,43.049],[141.97744,43.04864],[141.9784,43.04838],[141.9795,43.04807],[141.98258,43.04723],[141.98358,43.04695],[141.98522,43.0465],[141.98684,43.04605],[141.98742,43.04589],[141.98891,43.04548],[141.98947,43.04533]]},"properties":{"n":"Shuttle Gondola 6","op":null,"mode":"ropeway","kind":"gondola"}},{"type":"Feature","geometry":{"type":"LineString","coordinates":[[142.80775,43.17423],[142.80679,43.17423],[142.80578,43.17423],[142.80456,43.17422],[142.8029,43.17422],[142.80151,43.17422],[142.80057,43.17422],[142.79948,43.17422],[142.79752,43.17421],[142.79628,43.17421],[142.79473,43.17421],[142.79282,43.17421],[142.79172,43.1742],[142.78993,43.1742],[142.78924,43.1742],[142.78818,43.1742],[142.78607,43.17419],[142.78534,43.17419],[142.78447,43.17418],[142.78355,43.17417]]},"properties":{"n":"Sahoro Gondola","op":null,"mode":"ropeway","kind":"gondola"}},{"type":"Feature","geometry":{"type":"LineString","coordinates":[[135.87076,35.60202],[135.86961,35.60133]]},"properties":{"n":null,"op":null,"mode":"ropeway","kind":"cable_car"}},{"type":"Feature","geometry":{"type":"LineString","coordinates":[[141.21107,43.09509],[141.21041,43.09418],[141.20928,43.09262],[141.20869,43.09181],[141.20766,43.0904],[141.20627,43.08849],[141.20514,43.08694],[141.204,43.08536],[141.20345,43.08461],[141.20278,43.0837]]},"properties":{"n":"エイトゴンドラ","op":null,"mode":"ropeway","kind":"gondola"}},{"type":"Feature","geometry":{"type":"LineString","coordinates":[[135.82261,35.06475],[135.82542,35.06457],[135.82758,35.06444]]},"properties":{"n":"叡山ロープウェイ","op":null,"mode":"ropeway","kind":"cable_car"}},{"type":"Feature","geometry":{"type":"LineString","coordinates":[[139.32988,36.81432],[139.33014,36.81424],[139.332,36.81368],[139.33348,36.81324],[139.33479,36.81285],[139.33511,36.81275],[139.33646,36.81235],[139.33757,36.81201],[139.33763,36.812],[139.33896,36.8116],[139.33972,36.81137],[139.34091,36.81101],[139.34162,36.8108],[139.3428,36.81045],[139.34288,36.81043],[139.34389,36.81012],[139.34436,36.80998],[139.34441,36.80997],[139.34449,36.80995],[139.34545,36.80966],[139.3455,36.80964],[139.34625,36.80942],[139.3463,36.8094],[139.34635,36.80939],[139.34795,36.80891],[139.34961,36.80841],[139.35084,36.80805],[139.35123,36.80793],[139.35294,36.80742],[139.35449,36.80698],[139.35483,36.80688],[139.3551,36.8068]]},"properties":{"n":"日光白根山ロープウェイ","op":null,"mode":"ropeway","kind":"gondola"}},{"type":"Feature","geometry":{"type":"LineString","coordinates":[[140.12353,37.77566],[140.12669,37.77553],[140.12892,37.77547],[140.13225,37.77541],[140.13359,37.77534]]},"properties":{"n":"天元台ロープウェイ","op":null,"mode":"ropeway","kind":"cable_car"}},{"type":"Feature","geometry":{"type":"LineString","coordinates":[[136.87596,35.99783],[136.87521,35.99782],[136.87463,35.99781],[136.8734,35.99779],[136.87155,35.99777],[136.87078,35.99776],[136.8699,35.99775],[136.86839,35.99773],[136.86784,35.99772],[136.86758,35.99771],[136.86633,35.9977],[136.8649,35.99768],[136.86377,35.99766],[136.86286,35.99765],[136.86178,35.99764],[136.86069,35.99762],[136.85963,35.99761],[136.85829,35.99759],[136.85759,35.99758],[136.85678,35.99757],[136.85625,35.99756],[136.85513,35.99755],[136.85471,35.99754],[136.85331,35.99752],[136.85107,35.99749],[136.84922,35.99747],[136.84873,35.99746]]},"properties":{"n":"SPゴンドラ","op":null,"mode":"ropeway","kind":"gondola"}},{"type":"Feature","geometry":{"type":"LineString","coordinates":[[137.83176,36.76664],[137.82606,36.77047],[137.82182,36.77332]]},"properties":{"n":"栂池ロープウェイ","op":null,"mode":"ropeway","kind":"cable_car"}},{"type":"Feature","geometry":{"type":"LineString","coordinates":[[130.5281,33.31924],[130.52803,33.31906],[130.52796,33.319],[130.52766,33.31906],[130.52764,33.31909],[130.52793,33.3194],[130.52797,33.31941],[130.52811,33.31937],[130.52813,33.31934],[130.5281,33.31924]]},"properties":{"n":"スカイサイクル","op":null,"mode":"ropeway","kind":"gondola"}},{"type":"Feature","geometry":{"type":"LineString","coordinates":[[138.77568,36.84641],[138.7702,36.84669],[138.75883,36.84726],[138.75245,36.8476]]},"properties":{"n":"田代ロープウェー","op":null,"mode":"ropeway","kind":"cable_car"}},{"type":"Feature","geometry":{"type":"LineString","coordinates":[[138.78066,36.80252],[138.77999,36.80323],[138.77953,36.80381],[138.77845,36.80516],[138.77748,36.80636],[138.77644,36.80783],[138.77459,36.8101],[138.77297,36.81209],[138.77177,36.81362],[138.77029,36.81548],[138.7691,36.81681],[138.76777,36.81847],[138.76768,36.81858],[138.76668,36.81983],[138.76662,36.81991],[138.76434,36.82276],[138.7643,36.82282],[138.7633,36.82406],[138.76251,36.82505],[138.76133,36.82653],[138.76116,36.82675],[138.76109,36.82684],[138.75989,36.82834],[138.75913,36.82929],[138.75907,36.82937],[138.75901,36.82944],[138.75801,36.83069],[138.75632,36.83281],[138.75525,36.83415],[138.75517,36.83425],[138.75465,36.8349],[138.754,36.83571],[138.75286,36.83715],[138.7528,36.83722],[138.75254,36.83754],[138.75126,36.83914],[138.75117,36.83926],[138.75099,36.83948],[138.74999,36.84081],[138.74893,36.84213],[138.74855,36.84263]]},"properties":{"n":"ドラゴンドラ","op":null,"mode":"ropeway","kind":"gondola"}},{"type":"Feature","geometry":{"type":"LineString","coordinates":[[138.78407,36.79319],[138.7837,36.79317],[138.78288,36.79313],[138.78101,36.79304],[138.77938,36.79296],[138.77835,36.79291],[138.77638,36.79282],[138.77575,36.79279],[138.77412,36.79271],[138.77308,36.79266],[138.77106,36.79256],[138.76963,36.79249],[138.76926,36.79247],[138.76647,36.79234],[138.76551,36.79229],[138.76408,36.79222],[138.76279,36.79216],[138.76155,36.7921],[138.76104,36.79207]]},"properties":{"n":"プリンス第1ゴンドラ","op":null,"mode":"ropeway","kind":"gondola"}},{"type":"Feature","geometry":{"type":"LineString","coordinates":[[138.78476,36.79058],[138.78437,36.79054],[138.78395,36.79049],[138.78263,36.79034],[138.78098,36.79016],[138.78012,36.79006],[138.77839,36.78987],[138.77671,36.78968],[138.77631,36.78963],[138.77429,36.7894],[138.77349,36.78931],[138.77217,36.78917],[138.77071,36.789],[138.76969,36.78889],[138.76886,36.78879],[138.76741,36.78863],[138.7669,36.78857]]},"properties":{"n":"プリンス第2ゴンドラ","op":null,"mode":"ropeway","kind":"gondola"}},{"type":"Feature","geometry":{"type":"LineString","coordinates":[[135.66601,34.40373],[135.67545,34.4126]]},"properties":{"n":"金剛山ロープウェイ","op":null,"mode":"ropeway","kind":"cable_car"}},{"type":"Feature","geometry":{"type":"LineString","coordinates":[[138.92123,35.01249],[138.92819,35.02639]]},"properties":{"n":"伊豆の国パノラマパークロープウェイ","op":null,"mode":"ropeway","kind":"cable_car"}},{"type":"Feature","geometry":{"type":"LineString","coordinates":[[138.79928,36.95112],[138.79898,36.95114],[138.79849,36.95116],[138.79752,36.9512],[138.79576,36.95128],[138.79469,36.95132],[138.79338,36.95138],[138.79163,36.95146],[138.79045,36.95151],[138.79038,36.95151],[138.78964,36.95155],[138.78757,36.95164],[138.78593,36.95171],[138.78426,36.95178],[138.7836,36.95181]]},"properties":{"n":"ディリジャンス","op":null,"mode":"ropeway","kind":"gondola"}},{"type":"Feature","geometry":{"type":"LineString","coordinates":[[135.09652,34.64029],[135.09598,34.64083],[135.09596,34.64083],[135.09594,34.64084],[135.09593,34.64086],[135.09594,34.64088],[135.09597,34.64088],[135.09599,34.64087],[135.096,34.64086],[135.096,34.64084],[135.09653,34.6403],[135.09656,34.6403],[135.09657,34.64028],[135.09658,34.64026],[135.09657,34.64025],[135.09654,34.64025],[135.09652,34.64026],[135.09652,34.64029]]},"properties":{"n":"カーレーター","op":null,"mode":"ropeway","kind":"cable_car"}},{"type":"Feature","geometry":{"type":"LineString","coordinates":[[138.97867,37.10899],[138.98236,37.11341],[138.98614,37.11793],[138.99,37.12255],[138.99184,37.12476]]},"properties":{"n":"八海山ロープウェイ","op":null,"mode":"ropeway","kind":"cable_car"}},{"type":"Feature","geometry":{"type":"LineString","coordinates":[[140.80254,39.97877],[140.80268,39.97875],[140.8031,39.97867],[140.80389,39.97853],[140.80483,39.97837],[140.80513,39.97831],[140.80555,39.97824],[140.80645,39.97808],[140.80744,39.97791],[140.8085,39.97772],[140.80908,39.97762],[140.80993,39.97747],[140.81094,39.97729],[140.81167,39.97719],[140.81222,39.97709],[140.81332,39.97691],[140.81397,39.97682]]},"properties":{"n":null,"op":null,"mode":"ropeway","kind":"gondola"}},{"type":"Feature","geometry":{"type":"LineString","coordinates":[[132.4002,34.81527],[132.39958,34.81478],[132.39879,34.81416],[132.39796,34.81351],[132.39663,34.81245],[132.39575,34.81176],[132.39494,34.81112],[132.39423,34.81056],[132.3929,34.80951],[132.39203,34.80881],[132.39154,34.80842],[132.39096,34.80795],[132.39085,34.80786],[132.38978,34.80701],[132.38927,34.80659],[132.38843,34.80592],[132.38731,34.80501],[132.38634,34.80424],[132.38517,34.80329],[132.38475,34.80296]]},"properties":{"n":null,"op":null,"mode":"ropeway","kind":"gondola"}},{"type":"Feature","geometry":{"type":"LineString","coordinates":[[135.9076,35.20308],[135.90523,35.205],[135.90103,35.20841],[135.89679,35.21186],[135.89445,35.21376]]},"properties":{"n":null,"op":null,"mode":"ropeway","kind":"cable_car"}},{"type":"Feature","geometry":{"type":"LineString","coordinates":[[135.99592,35.42792],[135.99574,35.42813],[135.99568,35.4282],[135.99539,35.42852],[135.99454,35.42949],[135.99417,35.42991],[135.99318,35.43104],[135.9928,35.43147],[135.99255,35.43175],[135.9914,35.43307],[135.99125,35.43324],[135.99055,35.43404],[135.98963,35.43509],[135.9892,35.43558],[135.98871,35.43613],[135.98832,35.43657],[135.988,35.43693]]},"properties":{"n":"箱館山ゴンドラ","op":null,"mode":"ropeway","kind":"gondola"}},{"type":"Feature","geometry":{"type":"LineString","coordinates":[[136.7126,36.26829],[136.71267,36.26767],[136.71271,36.26736],[136.71281,36.26661],[136.71286,36.26619],[136.71291,36.26583],[136.71298,36.26525],[136.71308,36.26446],[136.71315,36.26389],[136.71317,36.26369],[136.71328,36.26286],[136.71346,36.26141],[136.71354,36.26074],[136.71378,36.25888],[136.71392,36.25777],[136.71401,36.25701],[136.71408,36.25649]]},"properties":{"n":null,"op":null,"mode":"ropeway","kind":"gondola"}},{"type":"Feature","geometry":{"type":"LineString","coordinates":[[138.15699,36.85565],[138.15681,36.85574],[138.15675,36.85577],[138.15673,36.85578],[138.15669,36.85581],[138.15633,36.85599],[138.1563,36.85601],[138.15626,36.85603],[138.15549,36.85643],[138.15393,36.85724],[138.15307,36.85768],[138.15228,36.85809],[138.15073,36.8589],[138.14873,36.85994],[138.14815,36.86024],[138.14781,36.86042],[138.1466,36.86105],[138.14505,36.86185],[138.14353,36.86264],[138.14203,36.86342],[138.1411,36.8639],[138.14027,36.86433],[138.13879,36.8651],[138.13751,36.86577],[138.13507,36.86703],[138.13404,36.86757],[138.13227,36.86849],[138.13144,36.86891],[138.13083,36.86924],[138.13079,36.86925],[138.13075,36.86928],[138.12939,36.86998],[138.12936,36.87],[138.12931,36.87002],[138.12926,36.87005],[138.12881,36.87028]]},"properties":{"n":"杉ノ原ゴンドラ","op":null,"mode":"ropeway","kind":"gondola"}},{"type":"Feature","geometry":{"type":"LineString","coordinates":[[138.4564,36.78397],[138.4585,36.78327],[138.47009,36.77941],[138.47894,36.77646]]},"properties":{"n":"竜王RW","op":null,"mode":"ropeway","kind":"cable_car"}},{"type":"Feature","geometry":{"type":"LineString","coordinates":[[140.64796,42.84759],[140.64815,42.84784],[140.64858,42.84841],[140.64933,42.84941],[140.64962,42.8498],[140.65032,42.85072],[140.65055,42.85103],[140.65059,42.85108],[140.65115,42.85179],[140.65199,42.85285],[140.65287,42.85396],[140.65367,42.85498],[140.65405,42.85546],[140.65451,42.85604],[140.6553,42.85705],[140.65585,42.85776],[140.65618,42.85818],[140.65685,42.85903],[140.65751,42.85988],[140.65768,42.86009],[140.65861,42.86127],[140.65937,42.86224],[140.66024,42.86334],[140.66087,42.86415],[140.66113,42.86447]]},"properties":{"n":"アンヌプリゴンドラ","op":null,"mode":"ropeway","kind":"gondola"}},{"type":"Feature","geometry":{"type":"LineString","coordinates":[[135.67725,34.68156],[135.67728,34.68137],[135.67753,34.68037]]},"properties":{"n":null,"op":null,"mode":"ropeway","kind":"gondola"}},{"type":"Feature","geometry":{"type":"LineString","coordinates":[[138.83221,36.98759],[138.83236,36.98714],[138.83274,36.98597],[138.83307,36.98493],[138.83348,36.98369],[138.83457,36.98031],[138.83494,36.97926],[138.83536,36.97801],[138.83555,36.97742],[138.83569,36.97697],[138.83619,36.97545],[138.8366,36.97425],[138.83674,36.97382],[138.83698,36.97306],[138.83734,36.97197],[138.83752,36.97143],[138.83774,36.97072],[138.83834,36.96895],[138.83843,36.96868],[138.83891,36.96718],[138.8393,36.96601],[138.83958,36.96519],[138.8398,36.96453]]},"properties":{"n":null,"op":null,"mode":"ropeway","kind":"gondola"}},{"type":"Feature","geometry":{"type":"LineString","coordinates":[[142.36011,43.3439],[142.35927,43.34373],[142.35781,43.34343],[142.3562,43.3431],[142.35447,43.34274],[142.35309,43.34246],[142.35196,43.34222],[142.35064,43.34195],[142.34988,43.3418],[142.34827,43.34146],[142.34737,43.34128],[142.34666,43.34113],[142.34576,43.34095],[142.34391,43.34057],[142.34286,43.34035],[142.34199,43.34017],[142.34128,43.34003],[142.34033,43.33983],[142.33968,43.3397],[142.33732,43.33921],[142.3365,43.33904],[142.33572,43.33888],[142.33419,43.33857],[142.33184,43.33808],[142.33077,43.33786],[142.32961,43.33762],[142.32768,43.33722],[142.32691,43.33707],[142.3265,43.33698]]},"properties":{"n":"北の峰ゴンドラ","op":null,"mode":"ropeway","kind":"gondola"}},{"type":"Feature","geometry":{"type":"LineString","coordinates":[[142.35344,43.32547],[142.35199,43.32559],[142.34764,43.32595],[142.33994,43.32658],[142.33373,43.32709],[142.3268,43.32767],[142.32526,43.32779]]},"properties":{"n":"富良野ロープウェー","op":null,"mode":"ropeway","kind":"cable_car"}},{"type":"Feature","geometry":{"type":"LineString","coordinates":[[136.08887,35.14137],[136.08367,35.14356]]},"properties":{"n":"八幡山ロープウェー","op":null,"mode":"ropeway","kind":"cable_car"}},{"type":"Feature","geometry":{"type":"LineString","coordinates":[[139.21913,36.8153],[139.21853,36.81583],[139.21783,36.81643],[139.21693,36.81721],[139.21567,36.81831],[139.21495,36.81893],[139.21446,36.81936],[139.21391,36.81984],[139.21354,36.82016],[139.21239,36.82116],[139.21176,36.82171],[139.21116,36.82224],[139.21039,36.82291],[139.20925,36.8239],[139.20914,36.82399],[139.20883,36.82426],[139.20749,36.82542],[139.20668,36.82613],[139.20575,36.82694],[139.20553,36.82713],[139.20549,36.82716],[139.20546,36.82719],[139.20543,36.82721],[139.20514,36.82747]]},"properties":{"n":"岩鞍ゴンドラスーパーウェイ","op":null,"mode":"ropeway","kind":"gondola"}},{"type":"Feature","geometry":{"type":"LineString","coordinates":[[137.42986,36.5757],[137.43044,36.57383],[137.43081,36.57262],[137.43115,36.57151],[137.43133,36.57093],[137.43144,36.57056],[137.43177,36.56951],[137.43216,36.56825],[137.43231,36.56774],[137.43261,36.56679],[137.43289,36.56588],[137.433,36.56552],[137.43364,36.56345],[137.43432,36.56121],[137.43447,36.56074]]},"properties":{"n":null,"op":null,"mode":"ropeway","kind":"gondola"}},{"type":"Feature","geometry":{"type":"LineString","coordinates":[[138.79035,36.93859],[138.77974,36.94043]]},"properties":{"n":"ランドー","op":null,"mode":"ropeway","kind":"cable_car"}},{"type":"Feature","geometry":{"type":"LineString","coordinates":[[138.80259,36.97853],[138.80146,36.97808],[138.80015,36.97756],[138.79967,36.97737],[138.79831,36.97683],[138.7976,36.97655],[138.79695,36.97629],[138.79567,36.97579],[138.79496,36.9755],[138.79474,36.97542],[138.79366,36.97499],[138.79295,36.97471],[138.79117,36.97406]]},"properties":{"n":"サンライズエクスプレス","op":null,"mode":"ropeway","kind":"mixed_lift"}},{"type":"Feature","geometry":{"type":"LineString","coordinates":[[140.28221,40.69514],[140.28236,40.69433],[140.28255,40.69329],[140.28281,40.69182],[140.28298,40.69088],[140.28333,40.68897],[140.28347,40.68818],[140.28361,40.68743],[140.28381,40.68631],[140.28406,40.68492],[140.28422,40.68404],[140.28438,40.68315],[140.28445,40.68274],[140.28469,40.68146],[140.28476,40.68106],[140.2849,40.68027],[140.28518,40.67875],[140.28525,40.67832],[140.28537,40.6777],[140.28556,40.67665],[140.28589,40.67479],[140.286,40.67421],[140.2863,40.67255],[140.28645,40.67171],[140.28659,40.67091],[140.28682,40.66966],[140.28684,40.66953],[140.28691,40.66918]]},"properties":{"n":"ゴンドラ","op":null,"mode":"ropeway","kind":"gondola"}},{"type":"Feature","geometry":{"type":"LineString","coordinates":[[138.1802,36.99084],[138.17907,36.99083],[138.17803,36.99083],[138.17652,36.99082],[138.17483,36.99082],[138.17387,36.99081],[138.17263,36.99081],[138.17235,36.99081],[138.17163,36.9908],[138.17008,36.9908],[138.16957,36.99079],[138.16779,36.99079],[138.16739,36.99078],[138.1667,36.99078],[138.16587,36.99078],[138.16372,36.99077],[138.16206,36.99076],[138.16108,36.99076],[138.16032,36.99102],[138.16015,36.99108],[138.1599,36.99116],[138.15923,36.99139],[138.15885,36.99152],[138.15765,36.99194],[138.15623,36.99243],[138.15433,36.99308],[138.15282,36.9936],[138.15224,36.99381],[138.15025,36.99449],[138.1501,36.99454],[138.14999,36.99458],[138.1495,36.99475]]},"properties":{"n":"新井ゴンドラ","op":null,"mode":"ropeway","kind":"gondola"}},{"type":"Feature","geometry":{"type":"LineString","coordinates":[[138.42453,35.38402],[138.42236,35.38756],[138.42157,35.38882],[138.41908,35.39282],[138.41788,35.39481],[138.41727,35.39579]]},"properties":{"n":"身延山ロープウェイ","op":null,"mode":"ropeway","kind":"gondola"}},{"type":"Feature","geometry":{"type":"LineString","coordinates":[[131.63016,34.0716],[131.62964,34.07121],[131.62563,34.06824],[131.62328,34.06648]]},"properties":{"n":"大平山ロープウエー","op":null,"mode":"ropeway","kind":"cable_car"}},{"type":"Feature","geometry":{"type":"LineString","coordinates":[[138.89311,35.03312],[138.89034,35.0333],[138.88951,35.03333]]},"properties":{"n":"(2017年撤去) 淡島海上ロープウェイ","op":null,"mode":"ropeway","kind":"cable_car"}},{"type":"Feature","geometry":{"type":"LineString","coordinates":[[139.07777,35.08863],[139.08028,35.08694]]},"properties":{"n":"アタミロープウェイ","op":null,"mode":"ropeway","kind":"cable_car"}},{"type":"Feature","geometry":{"type":"LineString","coordinates":[[141.15587,42.91504],[141.15604,42.91536]]},"properties":{"n":null,"op":null,"mode":"ropeway","kind":"cable_car"}},{"type":"Feature","geometry":{"type":"LineString","coordinates":[[138.78319,35.29126],[138.78309,35.29137],[138.78308,35.29141],[138.78309,35.29145],[138.78313,35.29147],[138.78318,35.29148],[138.78325,35.29147],[138.78332,35.29148],[138.78337,35.2915],[138.78344,35.29153],[138.7835,35.29151],[138.78354,35.29149],[138.78355,35.29145],[138.78354,35.2914],[138.78354,35.29137],[138.78356,35.29135],[138.7836,35.29132],[138.78362,35.2913],[138.78363,35.29127],[138.78361,35.29124],[138.7835,35.29117],[138.7834,35.2911],[138.78335,35.2911],[138.78332,35.29111],[138.78329,35.29114],[138.78327,35.29116],[138.78323,35.29121],[138.78319,35.29126]]},"properties":{"n":"そよかぜサイクリング コース","op":null,"mode":"ropeway","kind":"gondola"}},{"type":"Feature","geometry":{"type":"LineString","coordinates":[[142.63324,43.47623],[142.63298,43.47217]]},"properties":{"n":null,"op":null,"mode":"ropeway","kind":"mixed_lift"}},{"type":"Feature","geometry":{"type":"LineString","coordinates":[[140.39032,40.57525],[140.39051,40.57492],[140.39082,40.57438],[140.39094,40.57417],[140.3912,40.57372],[140.39151,40.57319],[140.39178,40.57271]]},"properties":{"n":null,"op":null,"mode":"ropeway","kind":"gondola"}},{"type":"Feature","geometry":{"type":"LineString","coordinates":[[140.39181,40.57272],[140.39153,40.57319],[140.39122,40.57373],[140.39095,40.57418],[140.39084,40.57439],[140.39053,40.57493],[140.39033,40.57525]]},"properties":{"n":null,"op":null,"mode":"ropeway","kind":"gondola"}},{"type":"Feature","geometry":{"type":"LineString","coordinates":[[140.96488,39.8151],[140.96493,39.81549],[140.96502,39.81623],[140.96513,39.81721],[140.9652,39.81777],[140.96527,39.81835],[140.96539,39.81935],[140.96545,39.81987],[140.96558,39.821],[140.96574,39.82229],[140.96594,39.82402],[140.96616,39.82588],[140.96623,39.82647],[140.96646,39.82845],[140.96668,39.83024],[140.96679,39.83118],[140.96683,39.83157]]},"properties":{"n":null,"op":null,"mode":"ropeway","kind":"gondola"}},{"type":"Feature","geometry":{"type":"LineString","coordinates":[[140.92979,39.77572],[140.92584,39.77623],[140.92064,39.7769],[140.9193,39.77708]]},"properties":{"n":null,"op":null,"mode":"ropeway","kind":"gondola"}},{"type":"Feature","geometry":{"type":"LineString","coordinates":[[140.93712,39.78486],[140.9366,39.7851],[140.93384,39.78636],[140.93261,39.78692],[140.93147,39.78745],[140.93069,39.7878],[140.92953,39.78833],[140.92893,39.78861],[140.92795,39.78905],[140.92555,39.79015],[140.92441,39.79067],[140.92234,39.79162],[140.92169,39.79191],[140.92122,39.79213],[140.92034,39.79253],[140.91917,39.79307],[140.91825,39.79349],[140.91755,39.79381],[140.91671,39.79419],[140.91548,39.79475],[140.91409,39.79539],[140.91305,39.79586],[140.91218,39.79626],[140.91127,39.79668],[140.91033,39.79711],[140.91019,39.79717],[140.90981,39.79734],[140.90801,39.79817],[140.9067,39.79877],[140.90657,39.79883],[140.90622,39.79899]]},"properties":{"n":"雫石第二ゴンドラ","op":null,"mode":"ropeway","kind":"gondola"}},{"type":"Feature","geometry":{"type":"LineString","coordinates":[[133.05007,35.04351],[133.04287,35.04606]]},"properties":{"n":null,"op":null,"mode":"ropeway","kind":"gondola"}},{"type":"Feature","geometry":{"type":"LineString","coordinates":[[133.04329,35.04646],[133.04902,35.04486]]},"properties":{"n":null,"op":null,"mode":"ropeway","kind":"gondola"}},{"type":"Feature","geometry":{"type":"LineString","coordinates":[[133.05034,35.04725],[133.04271,35.04721]]},"properties":{"n":null,"op":null,"mode":"ropeway","kind":"gondola"}},{"type":"Feature","geometry":{"type":"LineString","coordinates":[[133.04267,35.04761],[133.04566,35.04814]]},"properties":{"n":null,"op":null,"mode":"ropeway","kind":"gondola"}},{"type":"Feature","geometry":{"type":"LineString","coordinates":[[139.32628,35.87297],[139.32777,35.87157]]},"properties":{"n":null,"op":null,"mode":"ropeway","kind":"zip_line"}},{"type":"Feature","geometry":{"type":"LineString","coordinates":[[139.37058,36.31872],[139.37333,36.31937]]},"properties":{"n":"パノラマチェア","op":null,"mode":"ropeway","kind":"gondola"}},{"type":"Feature","geometry":{"type":"LineString","coordinates":[[139.75431,36.93807],[139.75507,36.93746],[139.75582,36.93687],[139.75659,36.93626],[139.75777,36.93533],[139.75897,36.93438],[139.76064,36.93305],[139.7619,36.93206],[139.76282,36.93133],[139.76361,36.9307],[139.76527,36.92939],[139.76596,36.92884],[139.76703,36.92798],[139.76766,36.92747],[139.76875,36.92661],[139.76972,36.92585],[139.7708,36.92499],[139.77124,36.92465],[139.77172,36.92427],[139.77241,36.92372],[139.77276,36.92345]]},"properties":{"n":"ゴンドラリフト","op":"ハンターマウンテン塩原","mode":"ropeway","kind":"gondola"}},{"type":"Feature","geometry":{"type":"LineString","coordinates":[[139.63837,35.45335],[139.63834,35.45334],[139.63708,35.45302],[139.63478,35.45243],[139.63369,35.45216],[139.63179,35.45167],[139.63163,35.45163],[139.63161,35.45163]]},"properties":{"n":"YOKOHAMA AIR CABIN","op":"泉陽興業株式会社","mode":"ropeway","kind":"gondola"}},{"type":"Feature","geometry":{"type":"LineString","coordinates":[[139.71828,36.83725],[139.71616,36.83909],[139.71411,36.84084]]},"properties":{"n":"鬼怒川温泉ロープウェイ","op":null,"mode":"ropeway","kind":"cable_car"}},{"type":"Feature","geometry":{"type":"LineString","coordinates":[[138.45203,36.92014],[138.48133,36.9068]]},"properties":{"n":"長坂ゴンドラ","op":null,"mode":"ropeway","kind":"gondola"}},{"type":"Feature","geometry":{"type":"LineString","coordinates":[[138.49618,36.72073],[138.49528,36.7206],[138.49424,36.72045],[138.4931,36.72029],[138.49204,36.72015]]},"properties":{"n":"志賀高原リゾートゴンドラ","op":null,"mode":"ropeway","kind":"gondola"}},{"type":"Feature","geometry":{"type":"LineString","coordinates":[[140.99407,37.17285],[140.99404,37.17273],[140.99421,37.17273],[140.99424,37.17284],[140.99407,37.17285]]},"properties":{"n":null,"op":null,"mode":"ropeway","kind":"cable_car"}},{"type":"Feature","geometry":{"type":"LineString","coordinates":[[137.63784,35.45186],[137.63661,35.45269],[137.63625,35.45293]]},"properties":{"n":null,"op":null,"mode":"ropeway","kind":"mixed_lift"}},{"type":"Feature","geometry":{"type":"LineString","coordinates":[[140.90348,39.23824],[140.90252,39.23827],[140.90161,39.2383],[140.90151,39.23831],[140.90025,39.23835],[140.89916,39.23838],[140.89826,39.23842],[140.89586,39.23851],[140.89437,39.23856],[140.89416,39.23857],[140.89319,39.2386],[140.89194,39.23865],[140.89081,39.23869],[140.89045,39.2387]]},"properties":{"n":"第二ゴンドラ","op":null,"mode":"ropeway","kind":"gondola"}},{"type":"Feature","geometry":{"type":"LineString","coordinates":[[140.68445,42.84417],[140.68216,42.84546],[140.67643,42.84868]]},"properties":{"n":"ビレッジエクスプレス","op":null,"mode":"ropeway","kind":"mixed_lift"}},{"type":"Feature","geometry":{"type":"LineString","coordinates":[[140.67497,42.8464],[140.67502,42.8465],[140.67504,42.84654],[140.67519,42.84683],[140.67562,42.84762],[140.67594,42.84822],[140.67608,42.84848]]},"properties":{"n":"アッパービレッジゴンドラ","op":null,"mode":"ropeway","kind":"gondola"}},{"type":"Feature","geometry":{"type":"LineString","coordinates":[[139.15656,35.61235],[139.15672,35.61236]]},"properties":{"n":null,"op":null,"mode":"ropeway","kind":"gondola"}},{"type":"Feature","geometry":{"type":"LineString","coordinates":[[140.98438,43.07451],[140.98491,43.07323],[140.98559,43.07187],[140.98607,43.07086],[140.98629,43.0704],[140.98651,43.06996],[140.98738,43.06825],[140.98778,43.06744],[140.98809,43.06689]]},"properties":{"n":"ゲートウェイエクスプレス","op":null,"mode":"ropeway","kind":"gondola"}},{"type":"Feature","geometry":{"type":"LineString","coordinates":[[140.69912,42.89189],[140.698,42.89171],[140.69617,42.89142],[140.69408,42.89109],[140.69201,42.89076],[140.68966,42.89039],[140.68855,42.89021],[140.68661,42.88991],[140.68496,42.88965],[140.6835,42.88942]]},"properties":{"n":"HANAZONO シンフォニーゴンドラ","op":null,"mode":"ropeway","kind":"gondola"}},{"type":"Feature","geometry":{"type":"LineString","coordinates":[[125.34155,24.72356],[125.34163,24.72302],[125.34168,24.72265],[125.34175,24.72216],[125.3418,24.72181],[125.34188,24.7212]]},"properties":{"n":null,"op":null,"mode":"ropeway","kind":"gondola"}},{"type":"Feature","geometry":{"type":"LineString","coordinates":[[139.32774,35.87152],[139.32538,35.87196]]},"properties":{"n":null,"op":null,"mode":"ropeway","kind":"zip_line"}},{"type":"Feature","geometry":{"type":"LineString","coordinates":[[138.58725,36.62871],[138.58248,36.63026]]},"properties":{"n":"天狗山ゴンドラ","op":null,"mode":"ropeway","kind":"gondola"}},{"type":"Feature","geometry":{"type":"LineString","coordinates":[[137.09248,35.17532],[137.09258,35.17482]]},"properties":{"n":null,"op":null,"mode":"ropeway","kind":"cable_car"}},{"type":"Feature","geometry":{"type":"LineString","coordinates":[[132.32512,34.27962],[132.32516,34.27967],[132.32819,34.28347],[132.32822,34.2835]]},"properties":{"n":"宮島ロープウエー","op":null,"mode":"ropeway","kind":"cable_car"}},{"type":"Feature","geometry":{"type":"LineString","coordinates":[[132.32826,34.2839],[132.32825,34.28401],[132.32674,34.29312],[132.32672,34.29327],[132.32677,34.29327],[132.32678,34.29323]]},"properties":{"n":"宮島ロープウエー","op":null,"mode":"ropeway","kind":"cable_car"}},{"type":"Feature","geometry":{"type":"LineString","coordinates":[[140.67722,42.87761],[140.6813,42.88048]]},"properties":{"n":"HANAZONO ZIPFLIGHT- マッハ 1","op":null,"mode":"ropeway","kind":"zip_line"}},{"type":"Feature","geometry":{"type":"LineString","coordinates":[[140.68123,42.88053],[140.685,42.88256]]},"properties":{"n":"HANAZONO ZIPFLIGHT- マッハ 2","op":null,"mode":"ropeway","kind":"zip_line"}},{"type":"Feature","geometry":{"type":"LineString","coordinates":[[140.686,42.88304],[140.70126,42.89222]]},"properties":{"n":"HANAZONO ZIPFLIGHT- マッハ 3","op":null,"mode":"ropeway","kind":"zip_line"}},{"type":"Feature","geometry":{"type":"LineString","coordinates":[[137.48465,35.94711],[137.48096,35.92988]]},"properties":{"n":null,"op":null,"mode":"ropeway","kind":"gondola"}},{"type":"Feature","geometry":{"type":"LineString","coordinates":[[140.68951,38.73701],[140.68208,38.74735]]},"properties":{"n":"鳴子スカイポーター","op":null,"mode":"ropeway","kind":"gondola"}},{"type":"Feature","geometry":{"type":"LineString","coordinates":[[139.93314,35.24324],[139.93457,35.24212]]},"properties":{"n":null,"op":null,"mode":"ropeway","kind":"zip_line"}},{"type":"Feature","geometry":{"type":"LineString","coordinates":[[139.93454,35.2421],[139.93326,35.24281]]},"properties":{"n":null,"op":null,"mode":"ropeway","kind":"zip_line"}}]}